<?xml version="1.0" encoding="US-ASCII" standalone="yes"?>
<q:quakeml xmlns:q="http://quakeml.org/xmlns/quakeml/1.2" xmlns="http://quakeml.org/xmlns/bed/1.2" xmlns:ingv="http://webservices.ingv.it/fdsnws/event/1">
  <eventParameters publicID="smi:webservices.ingv.it/fdsnws/event/1/query">
    <event publicID="smi:webservices.ingv.it/fdsnws/event/1/query?eventId=25883771">
      <type>earthquake</type>
      <description>
        <type>region name</type>
        <text>6 km SE San Giovanni Rotondo (FG)</text>
      </description>
      <preferredMagnitudeID>smi:webservices.ingv.it/fdsnws/event/1/query?magnitudeId=92254311</preferredMagnitudeID>
      <preferredOriginID>smi:webservices.ingv.it/fdsnws/event/1/query?originId=86375121</preferredOriginID>
      <creationInfo>
        <agencyID>INGV</agencyID>
        <author>hew10_mole#MOD_EQASSEMBLE</author>
        <creationTime>2021-01-01T02:08:54</creationTime>
        <ingv:id_locator>289053</ingv:id_locator>
      </creationInfo>
      <origin publicID="smi:webservices.ingv.it/fdsnws/event/1/query?originId=86375121">
        <evaluationMode>manual</evaluationMode>
        <type>hypocenter</type>
        <time>
          <value>2021-01-01T02:08:27.830000</value>
          <uncertainty>0.08</uncertainty>
        </time>
        <latitude>
          <value>41.6618</value>
          <uncertainty>0.0036</uncertainty>
        </latitude>
        <longitude>
          <value>15.7627</value>
          <uncertainty>0.0036</uncertainty>
        </longitude>
        <depth>
          <value>17700</value>
          <uncertainty>700</uncertainty>
        </depth>
        <depthType>from location</depthType>
        <originUncertainty>
          <preferredDescription>uncertainty ellipse</preferredDescription>
          <horizontalUncertainty>330.0</horizontalUncertainty>
          <minHorizontalUncertainty>254</minHorizontalUncertainty>
          <maxHorizontalUncertainty>335</maxHorizontalUncertainty>
          <azimuthMaxHorizontalUncertainty>208</azimuthMaxHorizontalUncertainty>
          <confidenceLevel>68</confidenceLevel>
        </originUncertainty>
        <quality>
          <azimuthalGap>86</azimuthalGap>
          <associatedPhaseCount>28</associatedPhaseCount>
          <usedPhaseCount>28</usedPhaseCount>
          <standardError>0.17</standardError>
          <minimumDistance>0.05216</minimumDistance>
          <maximumDistance>0.68259</maximumDistance>
          <associatedStationCount>14</associatedStationCount>
          <usedStationCount>14</usedStationCount>
        </quality>
        <evaluationStatus>reviewed</evaluationStatus>
        <methodID>smi:webservices.ingv.it/fdsnws/event/1/query?methodId=1</methodID>
        <earthModelID>smi:webservices.ingv.it/fdsnws/event/1/query?earthModelId=1</earthModelID>
        <creationInfo>
          <agencyID>INGV</agencyID>
          <author>BULLETIN-INGV</author>
          <version>1000</version>
          <creationTime>2021-07-12T16:54:56</creationTime>
        </creationInfo>
        <arrival publicID="smi:webservices.ingv.it/fdsnws/event/1/query?arrivalId=1660091821">
          <phase>S</phase>
          <azimuth>151</azimuth>
          <distance>0.6826</distance>
          <timeResidual>0.38</timeResidual>
          <timeWeight>41</timeWeight>
          <pickID>smi:webservices.ingv.it/fdsnws/event/1/query?pickId=504543121</pickID>
          <earthModelID>smi:webservices.ingv.it/fdsnws/event/1/query?earthModelId=1</earthModelID>
          <takeoffAngle>
            <value>96</value>
          </takeoffAngle>
          <creationInfo>
            <agencyID>INGV </agencyID>
            <author>BULLETIN-INGV</author>
            <creationTime>2021-01-19T09:13:26</creationTime>
          </creationInfo>
        </arrival>
        <arrival publicID="smi:webservices.ingv.it/fdsnws/event/1/query?arrivalId=1660091761">
          <phase>S</phase>
          <azimuth>276</azimuth>
          <distance>0.4766</distance>
          <timeResidual>0.77</timeResidual>
          <timeWeight>56</timeWeight>
          <pickID>smi:webservices.ingv.it/fdsnws/event/1/query?pickId=504543101</pickID>
          <earthModelID>smi:webservices.ingv.it/fdsnws/event/1/query?earthModelId=1</earthModelID>
          <takeoffAngle>
            <value>99</value>
          </takeoffAngle>
          <creationInfo>
            <agencyID>INGV </agencyID>
            <author>BULLETIN-INGV</author>
            <creationTime>2021-01-19T09:13:26</creationTime>
          </creationInfo>
        </arrival>
        <arrival publicID="smi:webservices.ingv.it/fdsnws/event/1/query?arrivalId=1660091801">
          <phase>S</phase>
          <azimuth>175</azimuth>
          <distance>0.5045</distance>
          <timeResidual>0.08</timeResidual>
          <timeWeight>45</timeWeight>
          <pickID>smi:webservices.ingv.it/fdsnws/event/1/query?pickId=504543161</pickID>
          <earthModelID>smi:webservices.ingv.it/fdsnws/event/1/query?earthModelId=1</earthModelID>
          <takeoffAngle>
            <value>99</value>
          </takeoffAngle>
          <creationInfo>
            <agencyID>INGV </agencyID>
            <author>BULLETIN-INGV</author>
            <creationTime>2021-01-19T09:13:26</creationTime>
          </creationInfo>
        </arrival>
        <arrival publicID="smi:webservices.ingv.it/fdsnws/event/1/query?arrivalId=1660091781">
          <phase>S</phase>
          <azimuth>338</azimuth>
          <distance>0.4973</distance>
          <timeResidual>-0.24</timeResidual>
          <timeWeight>44</timeWeight>
          <pickID>smi:webservices.ingv.it/fdsnws/event/1/query?pickId=504543141</pickID>
          <earthModelID>smi:webservices.ingv.it/fdsnws/event/1/query?earthModelId=1</earthModelID>
          <takeoffAngle>
            <value>99</value>
          </takeoffAngle>
          <creationInfo>
            <agencyID>INGV </agencyID>
            <author>BULLETIN-INGV</author>
            <creationTime>2021-01-19T09:13:26</creationTime>
          </creationInfo>
        </arrival>
        <arrival publicID="smi:webservices.ingv.it/fdsnws/event/1/query?arrivalId=1660091741">
          <phase>S</phase>
          <azimuth>55</azimuth>
          <distance>0.3804</distance>
          <timeResidual>-0.06</timeResidual>
          <timeWeight>47</timeWeight>
          <pickID>smi:webservices.ingv.it/fdsnws/event/1/query?pickId=504543501</pickID>
          <earthModelID>smi:webservices.ingv.it/fdsnws/event/1/query?earthModelId=1</earthModelID>
          <takeoffAngle>
            <value>103</value>
          </takeoffAngle>
          <creationInfo>
            <agencyID>INGV </agencyID>
            <author>BULLETIN-INGV</author>
            <creationTime>2021-01-19T09:13:26</creationTime>
          </creationInfo>
        </arrival>
        <arrival publicID="smi:webservices.ingv.it/fdsnws/event/1/query?arrivalId=1660091811">
          <phase>P</phase>
          <azimuth>151</azimuth>
          <distance>0.6826</distance>
          <timeResidual>-0.15</timeResidual>
          <timeWeight>85</timeWeight>
          <pickID>smi:webservices.ingv.it/fdsnws/event/1/query?pickId=504543111</pickID>
          <earthModelID>smi:webservices.ingv.it/fdsnws/event/1/query?earthModelId=1</earthModelID>
          <takeoffAngle>
            <value>96</value>
          </takeoffAngle>
          <creationInfo>
            <agencyID>INGV </agencyID>
            <author>BULLETIN-INGV</author>
            <creationTime>2021-01-19T09:13:26</creationTime>
          </creationInfo>
        </arrival>
        <arrival publicID="smi:webservices.ingv.it/fdsnws/event/1/query?arrivalId=1660091721">
          <phase>S</phase>
          <azimuth>25</azimuth>
          <distance>0.2581</distance>
          <timeResidual>-0.06</timeResidual>
          <timeWeight>72</timeWeight>
          <pickID>smi:webservices.ingv.it/fdsnws/event/1/query?pickId=504543481</pickID>
          <earthModelID>smi:webservices.ingv.it/fdsnws/event/1/query?earthModelId=1</earthModelID>
          <takeoffAngle>
            <value>111</value>
          </takeoffAngle>
          <creationInfo>
            <agencyID>INGV </agencyID>
            <author>BULLETIN-INGV</author>
            <creationTime>2021-01-19T09:13:26</creationTime>
          </creationInfo>
        </arrival>
        <arrival publicID="smi:webservices.ingv.it/fdsnws/event/1/query?arrivalId=1660091791">
          <phase>P</phase>
          <azimuth>175</azimuth>
          <distance>0.5045</distance>
          <timeResidual>-0.2</timeResidual>
          <timeWeight>88</timeWeight>
          <pickID>smi:webservices.ingv.it/fdsnws/event/1/query?pickId=504543151</pickID>
          <earthModelID>smi:webservices.ingv.it/fdsnws/event/1/query?earthModelId=1</earthModelID>
          <takeoffAngle>
            <value>99</value>
          </takeoffAngle>
          <creationInfo>
            <agencyID>INGV </agencyID>
            <author>BULLETIN-INGV</author>
            <creationTime>2021-01-19T09:13:26</creationTime>
          </creationInfo>
        </arrival>
        <arrival publicID="smi:webservices.ingv.it/fdsnws/event/1/query?arrivalId=1660091771">
          <phase>P</phase>
          <azimuth>338</azimuth>
          <distance>0.4973</distance>
          <timeResidual>-0.08</timeResidual>
          <timeWeight>45</timeWeight>
          <pickID>smi:webservices.ingv.it/fdsnws/event/1/query?pickId=504543131</pickID>
          <earthModelID>smi:webservices.ingv.it/fdsnws/event/1/query?earthModelId=1</earthModelID>
          <takeoffAngle>
            <value>99</value>
          </takeoffAngle>
          <creationInfo>
            <agencyID>INGV </agencyID>
            <author>BULLETIN-INGV</author>
            <creationTime>2021-01-19T09:13:26</creationTime>
          </creationInfo>
        </arrival>
        <arrival publicID="smi:webservices.ingv.it/fdsnws/event/1/query?arrivalId=1660091751">
          <phase>P</phase>
          <azimuth>276</azimuth>
          <distance>0.4766</distance>
          <timeResidual>0.01</timeResidual>
          <timeWeight>69</timeWeight>
          <pickID>smi:webservices.ingv.it/fdsnws/event/1/query?pickId=504543091</pickID>
          <earthModelID>smi:webservices.ingv.it/fdsnws/event/1/query?earthModelId=1</earthModelID>
          <takeoffAngle>
            <value>99</value>
          </takeoffAngle>
          <creationInfo>
            <agencyID>INGV </agencyID>
            <author>BULLETIN-INGV</author>
            <creationTime>2021-01-19T09:13:26</creationTime>
          </creationInfo>
        </arrival>
        <arrival publicID="smi:webservices.ingv.it/fdsnws/event/1/query?arrivalId=1660091701">
          <phase>S</phase>
          <azimuth>300</azimuth>
          <distance>0.1898</distance>
          <timeResidual>-0.03</timeResidual>
          <timeWeight>73</timeWeight>
          <pickID>smi:webservices.ingv.it/fdsnws/event/1/query?pickId=504543461</pickID>
          <earthModelID>smi:webservices.ingv.it/fdsnws/event/1/query?earthModelId=1</earthModelID>
          <takeoffAngle>
            <value>120</value>
          </takeoffAngle>
          <creationInfo>
            <agencyID>INGV </agencyID>
            <author>BULLETIN-INGV</author>
            <creationTime>2021-01-19T09:13:26</creationTime>
          </creationInfo>
        </arrival>
        <arrival publicID="smi:webservices.ingv.it/fdsnws/event/1/query?arrivalId=1660091661">
          <phase>S</phase>
          <azimuth>65</azimuth>
          <distance>0.1205</distance>
          <timeResidual>0.28</timeResidual>
          <timeWeight>70</timeWeight>
          <pickID>smi:webservices.ingv.it/fdsnws/event/1/query?pickId=504543441</pickID>
          <earthModelID>smi:webservices.ingv.it/fdsnws/event/1/query?earthModelId=1</earthModelID>
          <takeoffAngle>
            <value>136</value>
          </takeoffAngle>
          <creationInfo>
            <agencyID>INGV </agencyID>
            <author>BULLETIN-INGV</author>
            <creationTime>2021-01-19T09:13:26</creationTime>
          </creationInfo>
        </arrival>
        <arrival publicID="smi:webservices.ingv.it/fdsnws/event/1/query?arrivalId=1660091681">
          <phase>S</phase>
          <azimuth>293</azimuth>
          <distance>0.1475</distance>
          <timeResidual>-0.02</timeResidual>
          <timeWeight>49</timeWeight>
          <pickID>smi:webservices.ingv.it/fdsnws/event/1/query?pickId=504543031</pickID>
          <earthModelID>smi:webservices.ingv.it/fdsnws/event/1/query?earthModelId=1</earthModelID>
          <takeoffAngle>
            <value>129</value>
          </takeoffAngle>
          <creationInfo>
            <agencyID>INGV </agencyID>
            <author>BULLETIN-INGV</author>
            <creationTime>2021-01-19T09:13:26</creationTime>
          </creationInfo>
        </arrival>
        <arrival publicID="smi:webservices.ingv.it/fdsnws/event/1/query?arrivalId=1660091731">
          <phase>P</phase>
          <azimuth>55</azimuth>
          <distance>0.3804</distance>
          <timeResidual>-0.03</timeResidual>
          <timeWeight>94</timeWeight>
          <pickID>smi:webservices.ingv.it/fdsnws/event/1/query?pickId=504543491</pickID>
          <earthModelID>smi:webservices.ingv.it/fdsnws/event/1/query?earthModelId=1</earthModelID>
          <takeoffAngle>
            <value>103</value>
          </takeoffAngle>
          <creationInfo>
            <agencyID>INGV </agencyID>
            <author>BULLETIN-INGV</author>
            <creationTime>2021-01-19T09:13:26</creationTime>
          </creationInfo>
        </arrival>
        <arrival publicID="smi:webservices.ingv.it/fdsnws/event/1/query?arrivalId=1660091581">
          <phase>S</phase>
          <azimuth>269</azimuth>
          <distance>0.1196</distance>
          <timeResidual>-0.32</timeResidual>
          <timeWeight>69</timeWeight>
          <pickID>smi:webservices.ingv.it/fdsnws/event/1/query?pickId=504543421</pickID>
          <earthModelID>smi:webservices.ingv.it/fdsnws/event/1/query?earthModelId=1</earthModelID>
          <takeoffAngle>
            <value>136</value>
          </takeoffAngle>
          <creationInfo>
            <agencyID>INGV </agencyID>
            <author>BULLETIN-INGV</author>
            <creationTime>2021-01-19T09:13:26</creationTime>
          </creationInfo>
        </arrival>
        <arrival publicID="smi:webservices.ingv.it/fdsnws/event/1/query?arrivalId=1660091641">
          <phase>S</phase>
          <azimuth>281</azimuth>
          <distance>0.1277</distance>
          <timeResidual>-0.02</timeResidual>
          <timeWeight>73</timeWeight>
          <pickID>smi:webservices.ingv.it/fdsnws/event/1/query?pickId=504542991</pickID>
          <earthModelID>smi:webservices.ingv.it/fdsnws/event/1/query?earthModelId=1</earthModelID>
          <takeoffAngle>
            <value>134</value>
          </takeoffAngle>
          <creationInfo>
            <agencyID>INGV </agencyID>
            <author>BULLETIN-INGV</author>
            <creationTime>2021-01-19T09:13:26</creationTime>
          </creationInfo>
        </arrival>
        <arrival publicID="smi:webservices.ingv.it/fdsnws/event/1/query?arrivalId=1660091621">
          <phase>S</phase>
          <azimuth>301</azimuth>
          <distance>0.0980</distance>
          <timeResidual>0.07</timeResidual>
          <timeWeight>49</timeWeight>
          <pickID>smi:webservices.ingv.it/fdsnws/event/1/query?pickId=504542971</pickID>
          <earthModelID>smi:webservices.ingv.it/fdsnws/event/1/query?earthModelId=1</earthModelID>
          <takeoffAngle>
            <value>143</value>
          </takeoffAngle>
          <creationInfo>
            <agencyID>INGV </agencyID>
            <author>BULLETIN-INGV</author>
            <creationTime>2021-01-19T09:13:26</creationTime>
          </creationInfo>
        </arrival>
        <arrival publicID="smi:webservices.ingv.it/fdsnws/event/1/query?arrivalId=1660091601">
          <phase>S</phase>
          <azimuth>351</azimuth>
          <distance>0.0935</distance>
          <timeResidual>0.07</timeResidual>
          <timeWeight>73</timeWeight>
          <pickID>smi:webservices.ingv.it/fdsnws/event/1/query?pickId=504542951</pickID>
          <earthModelID>smi:webservices.ingv.it/fdsnws/event/1/query?earthModelId=1</earthModelID>
          <takeoffAngle>
            <value>144</value>
          </takeoffAngle>
          <creationInfo>
            <agencyID>INGV </agencyID>
            <author>BULLETIN-INGV</author>
            <creationTime>2021-01-19T09:13:26</creationTime>
          </creationInfo>
        </arrival>
        <arrival publicID="smi:webservices.ingv.it/fdsnws/event/1/query?arrivalId=1660091711">
          <phase>P</phase>
          <azimuth>25</azimuth>
          <distance>0.2581</distance>
          <timeResidual>-0.02</timeResidual>
          <timeWeight>96</timeWeight>
          <pickID>smi:webservices.ingv.it/fdsnws/event/1/query?pickId=504543471</pickID>
          <earthModelID>smi:webservices.ingv.it/fdsnws/event/1/query?earthModelId=1</earthModelID>
          <takeoffAngle>
            <value>111</value>
          </takeoffAngle>
          <creationInfo>
            <agencyID>INGV </agencyID>
            <author>BULLETIN-INGV</author>
            <creationTime>2021-01-19T09:13:26</creationTime>
          </creationInfo>
        </arrival>
        <arrival publicID="smi:webservices.ingv.it/fdsnws/event/1/query?arrivalId=1660091561">
          <phase>S</phase>
          <azimuth>219</azimuth>
          <distance>0.0522</distance>
          <timeResidual>0.01</timeResidual>
          <timeWeight>75</timeWeight>
          <pickID>smi:webservices.ingv.it/fdsnws/event/1/query?pickId=504543411</pickID>
          <earthModelID>smi:webservices.ingv.it/fdsnws/event/1/query?earthModelId=1</earthModelID>
          <takeoffAngle>
            <value>159</value>
          </takeoffAngle>
          <creationInfo>
            <agencyID>INGV </agencyID>
            <author>BULLETIN-INGV</author>
            <creationTime>2021-01-19T09:13:26</creationTime>
          </creationInfo>
        </arrival>
        <arrival publicID="smi:webservices.ingv.it/fdsnws/event/1/query?arrivalId=1660091671">
          <phase>P</phase>
          <azimuth>293</azimuth>
          <distance>0.1475</distance>
          <timeResidual>0.06</timeResidual>
          <timeWeight>49</timeWeight>
          <pickID>smi:webservices.ingv.it/fdsnws/event/1/query?pickId=504543021</pickID>
          <earthModelID>smi:webservices.ingv.it/fdsnws/event/1/query?earthModelId=1</earthModelID>
          <takeoffAngle>
            <value>129</value>
          </takeoffAngle>
          <creationInfo>
            <agencyID>INGV </agencyID>
            <author>BULLETIN-INGV</author>
            <creationTime>2021-01-19T09:13:26</creationTime>
          </creationInfo>
        </arrival>
        <arrival publicID="smi:webservices.ingv.it/fdsnws/event/1/query?arrivalId=1660091691">
          <phase>P</phase>
          <azimuth>300</azimuth>
          <distance>0.1898</distance>
          <timeResidual>-0.09</timeResidual>
          <timeWeight>96</timeWeight>
          <pickID>smi:webservices.ingv.it/fdsnws/event/1/query?pickId=504543451</pickID>
          <earthModelID>smi:webservices.ingv.it/fdsnws/event/1/query?earthModelId=1</earthModelID>
          <takeoffAngle>
            <value>120</value>
          </takeoffAngle>
          <creationInfo>
            <agencyID>INGV </agencyID>
            <author>BULLETIN-INGV</author>
            <creationTime>2021-01-19T09:13:26</creationTime>
          </creationInfo>
        </arrival>
        <arrival publicID="smi:webservices.ingv.it/fdsnws/event/1/query?arrivalId=1660091651">
          <phase>P</phase>
          <azimuth>65</azimuth>
          <distance>0.1205</distance>
          <timeResidual>0.13</timeResidual>
          <timeWeight>96</timeWeight>
