<?xml version="1.0" encoding="US-ASCII" standalone="yes"?>
<q:quakeml xmlns:q="http://quakeml.org/xmlns/quakeml/1.2" xmlns="http://quakeml.org/xmlns/bed/1.2" xmlns:ingv="http://webservices.ingv.it/fdsnws/event/1">
  <eventParameters publicID="smi:webservices.ingv.it/fdsnws/event/1/query">
    <event publicID="smi:webservices.ingv.it/fdsnws/event/1/query?eventId=25883681">
      <type>earthquake</type>
      <description>
        <type>region name</type>
        <text>2 km SW Ussita (MC)</text>
      </description>
      <preferredMagnitudeID>smi:webservices.ingv.it/fdsnws/event/1/query?magnitudeId=91710441</preferredMagnitudeID>
      <preferredOriginID>smi:webservices.ingv.it/fdsnws/event/1/query?originId=85930701</preferredOriginID>
      <creationInfo>
        <agencyID>INGV</agencyID>
        <author>hew10_mole#MOD_EQASSEMBLE</author>
        <creationTime>2021-01-01T01:50:21</creationTime>
        <ingv:id_locator>289050</ingv:id_locator>
      </creationInfo>
      <origin publicID="smi:webservices.ingv.it/fdsnws/event/1/query?originId=85930701">
        <evaluationMode>manual</evaluationMode>
        <type>hypocenter</type>
        <time>
          <value>2021-01-01T01:49:33.650000</value>
          <uncertainty>0.03</uncertainty>
        </time>
        <latitude>
          <value>42.9332</value>
          <uncertainty>0.0009</uncertainty>
        </latitude>
        <longitude>
          <value>13.1192</value>
          <uncertainty>0.0012</uncertainty>
        </longitude>
        <depth>
          <value>8900</value>
          <uncertainty>200</uncertainty>
        </depth>
        <depthType>from location</depthType>
        <originUncertainty>
          <preferredDescription>uncertainty ellipse</preferredDescription>
          <horizontalUncertainty>700.0</horizontalUncertainty>
          <minHorizontalUncertainty>8</minHorizontalUncertainty>
          <maxHorizontalUncertainty>700</maxHorizontalUncertainty>
          <azimuthMaxHorizontalUncertainty>59</azimuthMaxHorizontalUncertainty>
          <confidenceLevel>68</confidenceLevel>
        </originUncertainty>
        <quality>
          <azimuthalGap>113</azimuthalGap>
          <associatedPhaseCount>16</associatedPhaseCount>
          <usedPhaseCount>10</usedPhaseCount>
          <standardError>0.02</standardError>
          <minimumDistance>0.00000</minimumDistance>
          <maximumDistance>0.17267</maximumDistance>
          <associatedStationCount>10</associatedStationCount>
          <usedStationCount>5</usedStationCount>
        </quality>
        <evaluationStatus>reviewed</evaluationStatus>
        <methodID>smi:webservices.ingv.it/fdsnws/event/1/query?methodId=1</methodID>
        <earthModelID>smi:webservices.ingv.it/fdsnws/event/1/query?earthModelId=1</earthModelID>
        <creationInfo>
          <agencyID>INGV</agencyID>
          <author>SURVEY-INGV</author>
          <version>100</version>
          <creationTime>2021-01-01T02:54:19</creationTime>
        </creationInfo>
        <arrival publicID="smi:webservices.ingv.it/fdsnws/event/1/query?arrivalId=1648703501">
          <phase>Sg</phase>
          <timeResidual>2.41</timeResidual>
          <timeWeight>0</timeWeight>
          <pickID>smi:webservices.ingv.it/fdsnws/event/1/query?pickId=503131041</pickID>
          <earthModelID>smi:webservices.ingv.it/fdsnws/event/1/query?earthModelId=1</earthModelID>
          <creationInfo>
            <agencyID>INGV </agencyID>
            <author>SURVEY-INGV</author>
            <creationTime>2021-01-01T02:54:19</creationTime>
          </creationInfo>
        </arrival>
        <arrival publicID="smi:webservices.ingv.it/fdsnws/event/1/query?arrivalId=1648703491">
          <phase>Sg</phase>
          <timeResidual>2.38</timeResidual>
          <timeWeight>0</timeWeight>
          <pickID>smi:webservices.ingv.it/fdsnws/event/1/query?pickId=503131031</pickID>
          <earthModelID>smi:webservices.ingv.it/fdsnws/event/1/query?earthModelId=1</earthModelID>
          <creationInfo>
            <agencyID>INGV </agencyID>
            <author>SURVEY-INGV</author>
            <creationTime>2021-01-01T02:54:19</creationTime>
          </creationInfo>
        </arrival>
        <arrival publicID="smi:webservices.ingv.it/fdsnws/event/1/query?arrivalId=1648703481">
          <phase>Pn</phase>
          <timeResidual>-0.22</timeResidual>
          <timeWeight>0</timeWeight>
          <pickID>smi:webservices.ingv.it/fdsnws/event/1/query?pickId=503131021</pickID>
          <earthModelID>smi:webservices.ingv.it/fdsnws/event/1/query?earthModelId=1</earthModelID>
          <creationInfo>
            <agencyID>INGV </agencyID>
            <author>SURVEY-INGV</author>
            <creationTime>2021-01-01T02:54:19</creationTime>
          </creationInfo>
        </arrival>
        <arrival publicID="smi:webservices.ingv.it/fdsnws/event/1/query?arrivalId=1648703461">
          <phase>S</phase>
          <timeResidual>0.46</timeResidual>
          <timeWeight>0</timeWeight>
          <pickID>smi:webservices.ingv.it/fdsnws/event/1/query?pickId=503131001</pickID>
          <earthModelID>smi:webservices.ingv.it/fdsnws/event/1/query?earthModelId=1</earthModelID>
          <creationInfo>
            <agencyID>INGV </agencyID>
            <author>SURVEY-INGV</author>
            <creationTime>2021-01-01T02:54:19</creationTime>
          </creationInfo>
        </arrival>
        <arrival publicID="smi:webservices.ingv.it/fdsnws/event/1/query?arrivalId=1648703471">
          <phase>Pn</phase>
          <timeResidual>-4.33</timeResidual>
          <timeWeight>0</timeWeight>
          <pickID>smi:webservices.ingv.it/fdsnws/event/1/query?pickId=503131011</pickID>
          <earthModelID>smi:webservices.ingv.it/fdsnws/event/1/query?earthModelId=1</earthModelID>
          <creationInfo>
            <agencyID>INGV </agencyID>
            <author>SURVEY-INGV</author>
            <creationTime>2021-01-01T02:54:19</creationTime>
          </creationInfo>
        </arrival>
        <arrival publicID="smi:webservices.ingv.it/fdsnws/event/1/query?arrivalId=1648703451">
          <phase>P</phase>
          <timeResidual>2.05</timeResidual>
          <timeWeight>0</timeWeight>
          <pickID>smi:webservices.ingv.it/fdsnws/event/1/query?pickId=503130991</pickID>
          <earthModelID>smi:webservices.ingv.it/fdsnws/event/1/query?earthModelId=1</earthModelID>
          <creationInfo>
            <agencyID>INGV </agencyID>
            <author>SURVEY-INGV</author>
            <creationTime>2021-01-01T02:54:19</creationTime>
          </creationInfo>
        </arrival>
        <arrival publicID="smi:webservices.ingv.it/fdsnws/event/1/query?arrivalId=1648703421">
          <phase>S</phase>
          <azimuth>22</azimuth>
          <distance>0.1709</distance>
          <timeResidual>0.01</timeResidual>
          <timeWeight>49</timeWeight>
          <pickID>smi:webservices.ingv.it/fdsnws/event/1/query?pickId=503130961</pickID>
          <earthModelID>smi:webservices.ingv.it/fdsnws/event/1/query?earthModelId=1</earthModelID>
          <takeoffAngle>
            <value>115</value>
          </takeoffAngle>
          <creationInfo>
            <agencyID>INGV </agencyID>
            <author>SURVEY-INGV</author>
            <creationTime>2021-01-01T02:54:19</creationTime>
          </creationInfo>
        </arrival>
        <arrival publicID="smi:webservices.ingv.it/fdsnws/event/1/query?arrivalId=1648703401">
          <phase>S</phase>
          <azimuth>102</azimuth>
          <distance>0.1556</distance>
          <timeResidual>-0.03</timeResidual>
          <timeWeight>49</timeWeight>
          <pickID>smi:webservices.ingv.it/fdsnws/event/1/query?pickId=503130941</pickID>
          <earthModelID>smi:webservices.ingv.it/fdsnws/event/1/query?earthModelId=1</earthModelID>
          <takeoffAngle>
            <value>117</value>
          </takeoffAngle>
          <creationInfo>
            <agencyID>INGV </agencyID>
            <author>SURVEY-INGV</author>
            <creationTime>2021-01-01T02:54:19</creationTime>
          </creationInfo>
        </arrival>
        <arrival publicID="smi:webservices.ingv.it/fdsnws/event/1/query?arrivalId=1648703441">
          <phase>S</phase>
          <azimuth>295</azimuth>
          <distance>0.1727</distance>
          <timeResidual>0.01</timeResidual>
          <timeWeight>50</timeWeight>
          <pickID>smi:webservices.ingv.it/fdsnws/event/1/query?pickId=503130981</pickID>
          <earthModelID>smi:webservices.ingv.it/fdsnws/event/1/query?earthModelId=1</earthModelID>
          <takeoffAngle>
            <value>115</value>
          </takeoffAngle>
          <creationInfo>
            <agencyID>INGV </agencyID>
            <author>SURVEY-INGV</author>
            <creationTime>2021-01-01T02:54:19</creationTime>
          </creationInfo>
        </arrival>
        <arrival publicID="smi:webservices.ingv.it/fdsnws/event/1/query?arrivalId=1648703381">
          <phase>S</phase>
          <azimuth>347</azimuth>
          <distance>0.1061</distance>
          <timeResidual>0</timeResidual>
          <timeWeight>50</timeWeight>
          <pickID>smi:webservices.ingv.it/fdsnws/event/1/query?pickId=503130921</pickID>
          <earthModelID>smi:webservices.ingv.it/fdsnws/event/1/query?earthModelId=1</earthModelID>
          <takeoffAngle>
            <value>127</value>
          </takeoffAngle>
          <creationInfo>
            <agencyID>INGV </agencyID>
            <author>SURVEY-INGV</author>
            <creationTime>2021-01-01T02:54:19</creationTime>
          </creationInfo>
        </arrival>
        <arrival publicID="smi:webservices.ingv.it/fdsnws/event/1/query?arrivalId=1648703361">
          <phase>S</phase>
          <azimuth>182</azimuth>
          <distance>0.0998</distance>
          <timeResidual>-0.02</timeResidual>
          <timeWeight>50</timeWeight>
          <pickID>smi:webservices.ingv.it/fdsnws/event/1/query?pickId=503130901</pickID>
          <earthModelID>smi:webservices.ingv.it/fdsnws/event/1/query?earthModelId=1</earthModelID>
          <takeoffAngle>
            <value>129</value>
          </takeoffAngle>
          <creationInfo>
            <agencyID>INGV </agencyID>
            <author>SURVEY-INGV</author>
            <creationTime>2021-01-01T02:54:19</creationTime>
          </creationInfo>
        </arrival>
        <arrival publicID="smi:webservices.ingv.it/fdsnws/event/1/query?arrivalId=1648703431">
          <phase>P</phase>
          <azimuth>295</azimuth>
          <distance>0.1727</distance>
          <timeResidual>-0.04</timeResidual>
          <timeWeight>74</timeWeight>
          <pickID>smi:webservices.ingv.it/fdsnws/event/1/query?pickId=503130971</pickID>
          <earthModelID>smi:webservices.ingv.it/fdsnws/event/1/query?earthModelId=1</earthModelID>
          <takeoffAngle>
            <value>115</value>
          </takeoffAngle>
          <creationInfo>
            <agencyID>INGV </agencyID>
            <author>SURVEY-INGV</author>
            <creationTime>2021-01-01T02:54:19</creationTime>
          </creationInfo>
        </arrival>
        <arrival publicID="smi:webservices.ingv.it/fdsnws/event/1/query?arrivalId=1648703411">
          <phase>P</phase>
          <azimuth>22</azimuth>
          <distance>0.1709</distance>
          <timeResidual>-0.01</timeResidual>
          <timeWeight>49</timeWeight>
          <pickID>smi:webservices.ingv.it/fdsnws/event/1/query?pickId=503130951</pickID>
          <earthModelID>smi:webservices.ingv.it/fdsnws/event/1/query?earthModelId=1</earthModelID>
          <takeoffAngle>
            <value>115</value>
          </takeoffAngle>
          <creationInfo>
            <agencyID>INGV </agencyID>
            <author>SURVEY-INGV</author>
            <creationTime>2021-01-01T02:54:19</creationTime>
          </creationInfo>
        </arrival>
        <arrival publicID="smi:webservices.ingv.it/fdsnws/event/1/query?arrivalId=1648703391">
          <phase>P</phase>
          <azimuth>102</azimuth>
          <distance>0.1556</distance>
          <timeResidual>0.01</timeResidual>
          <timeWeight>75</timeWeight>
          <pickID>smi:webservices.ingv.it/fdsnws/event/1/query?pickId=503130931</pickID>
          <earthModelID>smi:webservices.ingv.it/fdsnws/event/1/query?earthModelId=1</earthModelID>
          <takeoffAngle>
            <value>117</value>
          </takeoffAngle>
          <creationInfo>
            <agencyID>INGV </agencyID>
            <author>SURVEY-INGV</author>
            <creationTime>2021-01-01T02:54:19</creationTime>
          </creationInfo>
        </arrival>
        <arrival publicID="smi:webservices.ingv.it/fdsnws/event/1/query?arrivalId=1648703371">
          <phase>P</phase>
          <azimuth>347</azimuth>
          <distance>0.1061</distance>
          <timeResidual>0.03</timeResidual>
          <timeWeight>25</timeWeight>
          <pickID>smi:webservices.ingv.it/fdsnws/event/1/query?pickId=503130911</pickID>
          <earthModelID>smi:webservices.ingv.it/fdsnws/event/1/query?earthModelId=1</earthModelID>
          <takeoffAngle>
            <value>127</value>
          </takeoffAngle>
          <creationInfo>
            <agencyID>INGV </agencyID>
            <author>SURVEY-INGV</author>
            <creationTime>2021-01-01T02:54:19</creationTime>
          </creationInfo>
        </arrival>
        <arrival publicID="smi:webservices.ingv.it/fdsnws/event/1/query?arrivalId=1648703351">
          <phase>P</phase>
          <azimuth>182</azimuth>
          <distance>0.0998</distance>
          <timeResidual>0.03</timeResidual>
          <timeWeight>100</timeWeight>
          <pickID>smi:webservices.ingv.it/fdsnws/event/1/query?pickId=503130891</pickID>
          <earthModelID>smi:webservices.ingv.it/fdsnws/event/1/query?earthModelId=1</earthModelID>
          <takeoffAngle>
            <value>129</value>
          </takeoffAngle>
          <creationInfo>
            <agencyID>INGV </agencyID>
            <author>SURVEY-INGV</author>
            <creationTime>2021-01-01T02:54:19</creationTime>
          </creationInfo>
        </arrival>
      </origin>
      <stationMagnitude publicID="smi:webservices.ingv.it/fdsnws/event/1/query?stationMagnitudeId=amp-534528751">
        <mag>
          <value>1.0</value>
        </mag>
        <originID>smi:webservices.ingv.it/fdsnws/event/1/query?originId=85930701</originID>
        <methodID>smi:webservices.ingv.it/fdsnws/event/1/query?methodId=1</methodID>
        <amplitudeID>smi:webservices.ingv.it/fdsnws/event/1/query?amplitudeId=amp-470164851</amplitudeID>
        <type>ML</type>
        <creationInfo>
          <agencyID>INGV</agencyID>
          <creationTime>2021-01-01T02:54:19</creationTime>
        </creationInfo>
        <comment>
          <text>original mag_type: ML</text>
        </comment>
        <waveformID networkCode="IV" stationCode="NRCA" channelCode="HHN" locationCode=""/>
      </stationMagnitude>
      <stationMagnitude publicID="smi:webservices.ingv.it/fdsnws/event/1/query?stationMagnitudeId=amp-534528761">
        <mag>
          <value>0.7</value>
        </mag>
        <originID>smi:webservices.ingv.it/fdsnws/event/1/query?originId=85930701</originID>
        <methodID>smi:webservices.ingv.it/fdsnws/event/1/query?methodId=1</methodID>
        <amplitudeID>smi:webservices.ingv.it/fdsnws/event/1/query?amplitudeId=amp-470164861</amplitudeID>
        <type>ML</type>
        <creationInfo>
          <agencyID>INGV</agencyID>
          <creationTime>2021-01-01T02:54:19</creationTime>
        </creationInfo>
        <comment>
          <text>original mag_type: ML</text>
        </comment>
        <waveformID networkCode="IV" stationCode="FDMO" channelCode="HHE" locationCode=""/>
      </stationMagnitude>
      <stationMagnitude publicID="smi:webservices.ingv.it/fdsnws/event/1/query?stationMagnitudeId=amp-534528771">
        <mag>
          <value>0.6</value>
        </mag>
        <originID>smi:webservices.ingv.it/fdsnws/event/1/query?originId=85930701</originID>
        <methodID>smi:webservices.ingv.it/fdsnws/event/1/query?methodId=1</methodID>
        <amplitudeID>smi:webservices.ingv.it/fdsnws/event/1/query?amplitudeId=amp-470164871</amplitudeID>
        <type>ML</type>
        <creationInfo>
          <agencyID>INGV</agencyID>
          <creationTime>2021-01-01T02:54:19</creationTime>
        </creationInfo>
        <comment>
          <text>original mag_type: ML</text>
        </comment>
        <waveformID networkCode="IV" stationCode="FDMO" channelCode="HHN" locationCode=""/>
      </stationMagnitude>
      <stationMagnitude publicID="smi:webservices.ingv.it/fdsnws/event/1/query?stationMagnitudeId=amp-534528781">
        <mag>
          <value>1.0</value>
        </mag>
        <originID>smi:webservices.ingv.it/fdsnws/event/1/query?originId=85930701</originID>
        <methodID>smi:webservices.ingv.it/fdsnws/event/1/query?methodId=1</methodID>
        <amplitudeID>smi:webservices.ingv.it/fdsnws/event/1/query?amplitudeId=amp-470164881</amplitudeID>
        <type>ML</type>
        <creationInfo>
          <agencyID>INGV</agencyID>
          <creationTime>2021-01-01T02:54:19</creationTime>
        </creationInfo>
        <comment>
          <text>original mag_type: ML</text>
        </comment>
        <waveformID networkCode="IV" stationCode="NRCA" channelCode="HHE" locationCode=""/>
      </stationMagnitude>
      <stationMagnitude publicID="smi:webservices.ingv.it/fdsnws/event/1/query?stationMagnitudeId=amp-534528791">
        <mag>
          <value>0.9</value>
        </mag>
        <originID>smi:webservices.ingv.it/fdsnws/event/1/query?originId=85930701</originID>
        <methodID>smi:webservices.ingv.it/fdsnws/event/1/query?methodId=1</methodID>
        <amplitudeID>smi:webservices.ingv.it/fdsnws/event/1/query?amplitudeId=amp-470164891</amplitudeID>
        <type>ML</type>
        <creationInfo>
          <agencyID>INGV</agencyID>
          <creationTime>2021-01-01T02:54:19</creationTime>
        </creationInfo>
        <comment>
          <text>original mag_type: ML</text>
        </comment>
        <waveformID networkCode="IV" stationCode="CESI" channelCode="HHN" locationCode=""/>
      </stationMagnitude>
      <stationMagnitude publicID="smi:webservices.ingv.it/fdsnws/event/1/query?stationMagnitudeId=amp-534528801">
        <mag>
          <value>0.8</value>
        </mag>
        <originID>smi:webservices.ingv.it/fdsnws/event/1/query?originId=85930701</originID>
        <methodID>smi:webservices.ingv.it/fdsnws/event/1/query?methodId=1</methodID>
        <amplitudeID>smi:webservices.ingv.it/fdsnws/event/1/query?amplitudeId=amp-470164901</amplitudeID>
        <type>ML</type>
        <creationInfo>
          <agencyID>INGV</agencyID>
          <creationTime>2021-01-01T02:54:19</creationTime>
        </creationInfo>
        <comment>
          <text>original mag_type: ML</text>
        </comment>
        <waveformID networkCode="IV" stationCode="CESI" channelCode="HHE" locationCode=""/>
      </stationMagnitude>
      <stationMagnitude publicID="smi:webservices.ingv.it/fdsnws/event/1/query?stationMagnitudeId=amp-534528811">
        <mag>
          <value>2.4</value>
        </mag>
        <originID>smi:webservices.ingv.it/fdsnws/event/1/query?originId=85930701</originID>
        <methodID>smi:webservices.ingv.it/fdsnws/event/1/query?methodId=1</methodID>
        <amplitudeID>smi:webservices.ingv.it/fdsnws/event/1/query?amplitudeId=amp-470164911</amplitudeID>
        <type>ML</type>
        <creationInfo>
          <agencyID>INGV</agencyID>
          <creationTime>2021-01-01T02:54:19</creationTime>
        </creationInfo>
        <comment>
          <text>original mag_type: ML</text>
        </comment>
        <waveformID networkCode="IV" stationCode="MDAR" channelCode="HNE" locationCode=""/>
      </stationMagnitude>
