<?xml version="1.0" encoding="US-ASCII" standalone="yes"?>
<q:quakeml xmlns:q="http://quakeml.org/xmlns/quakeml/1.2" xmlns="http://quakeml.org/xmlns/bed/1.2" xmlns:ingv="http://webservices.ingv.it/fdsnws/event/1">
  <eventParameters publicID="smi:webservices.ingv.it/fdsnws/event/1/query">
    <event publicID="smi:webservices.ingv.it/fdsnws/event/1/query?eventId=25884001">
      <type>earthquake</type>
      <description>
        <type>region name</type>
        <text>3 km NE Preci (PG)</text>
      </description>
      <preferredMagnitudeID>smi:webservices.ingv.it/fdsnws/event/1/query?magnitudeId=92254441</preferredMagnitudeID>
      <preferredOriginID>smi:webservices.ingv.it/fdsnws/event/1/query?originId=86375281</preferredOriginID>
      <creationInfo>
        <agencyID>INGV</agencyID>
        <author>hew10_mole#MOD_EQASSEMBLE</author>
        <creationTime>2021-01-01T02:49:12</creationTime>
        <ingv:id_locator>289060</ingv:id_locator>
      </creationInfo>
      <origin publicID="smi:webservices.ingv.it/fdsnws/event/1/query?originId=86375281">
        <evaluationMode>manual</evaluationMode>
        <type>hypocenter</type>
        <time>
          <value>2021-01-01T02:48:53.360000</value>
          <uncertainty>0.05</uncertainty>
        </time>
        <latitude>
          <value>42.8937</value>
          <uncertainty>0.0027</uncertainty>
        </latitude>
        <longitude>
          <value>13.0715</value>
          <uncertainty>0.0037</uncertainty>
        </longitude>
        <depth>
          <value>9800</value>
          <uncertainty>300</uncertainty>
        </depth>
        <depthType>from location</depthType>
        <originUncertainty>
          <preferredDescription>uncertainty ellipse</preferredDescription>
          <horizontalUncertainty>270.0</horizontalUncertainty>
          <minHorizontalUncertainty>237</minHorizontalUncertainty>
          <maxHorizontalUncertainty>274</maxHorizontalUncertainty>
          <azimuthMaxHorizontalUncertainty>281</azimuthMaxHorizontalUncertainty>
          <confidenceLevel>68</confidenceLevel>
        </originUncertainty>
        <quality>
          <azimuthalGap>30</azimuthalGap>
          <associatedPhaseCount>72</associatedPhaseCount>
          <usedPhaseCount>72</usedPhaseCount>
          <standardError>0.26</standardError>
          <minimumDistance>0.06745</minimumDistance>
          <maximumDistance>0.84266</maximumDistance>
          <associatedStationCount>43</associatedStationCount>
          <usedStationCount>43</usedStationCount>
        </quality>
        <evaluationStatus>reviewed</evaluationStatus>
        <methodID>smi:webservices.ingv.it/fdsnws/event/1/query?methodId=1</methodID>
        <earthModelID>smi:webservices.ingv.it/fdsnws/event/1/query?earthModelId=1</earthModelID>
        <creationInfo>
          <agencyID>INGV</agencyID>
          <author>BULLETIN-INGV</author>
          <version>1000</version>
          <creationTime>2021-07-12T16:54:56</creationTime>
        </creationInfo>
        <arrival publicID="smi:webservices.ingv.it/fdsnws/event/1/query?arrivalId=1660095491">
          <phase>S</phase>
          <azimuth>155</azimuth>
          <distance>0.5927</distance>
          <timeResidual>0.69</timeResidual>
          <timeWeight>38</timeWeight>
          <pickID>smi:webservices.ingv.it/fdsnws/event/1/query?pickId=504545181</pickID>
          <earthModelID>smi:webservices.ingv.it/fdsnws/event/1/query?earthModelId=1</earthModelID>
          <takeoffAngle>
            <value>50</value>
          </takeoffAngle>
          <creationInfo>
            <agencyID>INGV </agencyID>
            <author>BULLETIN-INGV</author>
            <creationTime>2021-01-19T09:45:31</creationTime>
          </creationInfo>
        </arrival>
        <arrival publicID="smi:webservices.ingv.it/fdsnws/event/1/query?arrivalId=1660095461">
          <phase>S</phase>
          <azimuth>140</azimuth>
          <distance>0.5738</distance>
          <timeResidual>-0.34</timeResidual>
          <timeWeight>43</timeWeight>
          <pickID>smi:webservices.ingv.it/fdsnws/event/1/query?pickId=504545401</pickID>
          <earthModelID>smi:webservices.ingv.it/fdsnws/event/1/query?earthModelId=1</earthModelID>
          <takeoffAngle>
            <value>50</value>
          </takeoffAngle>
          <creationInfo>
            <agencyID>INGV </agencyID>
            <author>BULLETIN-INGV</author>
            <creationTime>2021-01-19T09:45:31</creationTime>
          </creationInfo>
        </arrival>
        <arrival publicID="smi:webservices.ingv.it/fdsnws/event/1/query?arrivalId=1660095431">
          <phase>S</phase>
          <azimuth>11</azimuth>
          <distance>0.4901</distance>
          <timeResidual>0.09</timeResidual>
          <timeWeight>69</timeWeight>
          <pickID>smi:webservices.ingv.it/fdsnws/event/1/query?pickId=504545241</pickID>
          <earthModelID>smi:webservices.ingv.it/fdsnws/event/1/query?earthModelId=1</earthModelID>
          <takeoffAngle>
            <value>50</value>
          </takeoffAngle>
          <creationInfo>
            <agencyID>INGV </agencyID>
            <author>BULLETIN-INGV</author>
            <creationTime>2021-01-19T09:45:31</creationTime>
          </creationInfo>
        </arrival>
        <arrival publicID="smi:webservices.ingv.it/fdsnws/event/1/query?arrivalId=1660095411">
          <phase>S</phase>
          <azimuth>125</azimuth>
          <distance>0.4757</distance>
          <timeResidual>-0.1</timeResidual>
          <timeWeight>46</timeWeight>
          <pickID>smi:webservices.ingv.it/fdsnws/event/1/query?pickId=504545041</pickID>
          <earthModelID>smi:webservices.ingv.it/fdsnws/event/1/query?earthModelId=1</earthModelID>
          <takeoffAngle>
            <value>50</value>
          </takeoffAngle>
          <creationInfo>
            <agencyID>INGV </agencyID>
            <author>BULLETIN-INGV</author>
            <creationTime>2021-01-19T09:45:31</creationTime>
          </creationInfo>
        </arrival>
        <arrival publicID="smi:webservices.ingv.it/fdsnws/event/1/query?arrivalId=1660095571">
          <phase>P</phase>
          <azimuth>142</azimuth>
          <distance>0.8427</distance>
          <timeResidual>-0.29</timeResidual>
          <timeWeight>62</timeWeight>
          <pickID>smi:webservices.ingv.it/fdsnws/event/1/query?pickId=504545161</pickID>
          <earthModelID>smi:webservices.ingv.it/fdsnws/event/1/query?earthModelId=1</earthModelID>
          <takeoffAngle>
            <value>50</value>
          </takeoffAngle>
          <creationInfo>
            <agencyID>INGV </agencyID>
            <author>BULLETIN-INGV</author>
            <creationTime>2021-01-19T09:45:31</creationTime>
          </creationInfo>
        </arrival>
        <arrival publicID="smi:webservices.ingv.it/fdsnws/event/1/query?arrivalId=1660095381">
          <phase>S</phase>
          <azimuth>331</azimuth>
          <distance>0.4605</distance>
          <timeResidual>0.17</timeResidual>
          <timeWeight>46</timeWeight>
          <pickID>smi:webservices.ingv.it/fdsnws/event/1/query?pickId=504545001</pickID>
          <earthModelID>smi:webservices.ingv.it/fdsnws/event/1/query?earthModelId=1</earthModelID>
          <takeoffAngle>
            <value>50</value>
          </takeoffAngle>
          <creationInfo>
            <agencyID>INGV </agencyID>
            <author>BULLETIN-INGV</author>
            <creationTime>2021-01-19T09:45:31</creationTime>
          </creationInfo>
        </arrival>
        <arrival publicID="smi:webservices.ingv.it/fdsnws/event/1/query?arrivalId=1660095341">
          <phase>S</phase>
          <azimuth>3</azimuth>
          <distance>0.4362</distance>
          <timeResidual>0.5</timeResidual>
          <timeWeight>43</timeWeight>
          <pickID>smi:webservices.ingv.it/fdsnws/event/1/query?pickId=504545301</pickID>
          <earthModelID>smi:webservices.ingv.it/fdsnws/event/1/query?earthModelId=1</earthModelID>
          <takeoffAngle>
            <value>50</value>
          </takeoffAngle>
          <creationInfo>
            <agencyID>INGV </agencyID>
            <author>BULLETIN-INGV</author>
            <creationTime>2021-01-19T09:45:31</creationTime>
          </creationInfo>
        </arrival>
        <arrival publicID="smi:webservices.ingv.it/fdsnws/event/1/query?arrivalId=1660095361">
          <phase>S</phase>
          <azimuth>231</azimuth>
          <distance>0.4560</distance>
          <timeResidual>0.05</timeResidual>
          <timeWeight>70</timeWeight>
          <pickID>smi:webservices.ingv.it/fdsnws/event/1/query?pickId=504544981</pickID>
          <earthModelID>smi:webservices.ingv.it/fdsnws/event/1/query?earthModelId=1</earthModelID>
          <takeoffAngle>
            <value>50</value>
          </takeoffAngle>
          <creationInfo>
            <agencyID>INGV </agencyID>
            <author>BULLETIN-INGV</author>
            <creationTime>2021-01-19T09:45:31</creationTime>
          </creationInfo>
        </arrival>
        <arrival publicID="smi:webservices.ingv.it/fdsnws/event/1/query?arrivalId=1660095321">
          <phase>S</phase>
          <azimuth>145</azimuth>
          <distance>0.4353</distance>
          <timeResidual>-0.14</timeResidual>
          <timeWeight>46</timeWeight>
          <pickID>smi:webservices.ingv.it/fdsnws/event/1/query?pickId=504544961</pickID>
          <earthModelID>smi:webservices.ingv.it/fdsnws/event/1/query?earthModelId=1</earthModelID>
          <takeoffAngle>
            <value>50</value>
          </takeoffAngle>
          <creationInfo>
            <agencyID>INGV </agencyID>
            <author>BULLETIN-INGV</author>
            <creationTime>2021-01-19T09:45:31</creationTime>
          </creationInfo>
        </arrival>
        <arrival publicID="smi:webservices.ingv.it/fdsnws/event/1/query?arrivalId=1660095581">
          <phase>P</phase>
          <azimuth>334</azimuth>
          <distance>0.8004</distance>
          <timeResidual>0.18</timeResidual>
          <timeWeight>43</timeWeight>
          <pickID>smi:webservices.ingv.it/fdsnws/event/1/query?pickId=504546131</pickID>
          <earthModelID>smi:webservices.ingv.it/fdsnws/event/1/query?earthModelId=1</earthModelID>
          <takeoffAngle>
            <value>50</value>
          </takeoffAngle>
          <creationInfo>
            <agencyID>INGV </agencyID>
            <author>BULLETIN-INGV</author>
            <creationTime>2021-01-19T09:45:31</creationTime>
          </creationInfo>
        </arrival>
        <arrival publicID="smi:webservices.ingv.it/fdsnws/event/1/query?arrivalId=1660095291">
          <phase>S</phase>
          <azimuth>256</azimuth>
          <distance>0.3777</distance>
          <timeResidual>0.81</timeResidual>
          <timeWeight>38</timeWeight>
          <pickID>smi:webservices.ingv.it/fdsnws/event/1/query?pickId=504545321</pickID>
          <earthModelID>smi:webservices.ingv.it/fdsnws/event/1/query?earthModelId=1</earthModelID>
          <takeoffAngle>
            <value>50</value>
          </takeoffAngle>
          <creationInfo>
            <agencyID>INGV </agencyID>
            <author>BULLETIN-INGV</author>
            <creationTime>2021-01-19T09:45:31</creationTime>
          </creationInfo>
        </arrival>
        <arrival publicID="smi:webservices.ingv.it/fdsnws/event/1/query?arrivalId=1660095251">
          <phase>S</phase>
          <azimuth>256</azimuth>
          <distance>0.3786</distance>
          <timeResidual>0.69</timeResidual>
          <timeWeight>60</timeWeight>
          <pickID>smi:webservices.ingv.it/fdsnws/event/1/query?pickId=504544921</pickID>
          <earthModelID>smi:webservices.ingv.it/fdsnws/event/1/query?earthModelId=1</earthModelID>
          <takeoffAngle>
            <value>50</value>
          </takeoffAngle>
          <creationInfo>
            <agencyID>INGV </agencyID>
            <author>BULLETIN-INGV</author>
            <creationTime>2021-01-19T09:45:31</creationTime>
          </creationInfo>
        </arrival>
        <arrival publicID="smi:webservices.ingv.it/fdsnws/event/1/query?arrivalId=1660095551">
          <phase>P</phase>
          <azimuth>329</azimuth>
          <distance>0.7509</distance>
          <timeResidual>0.34</timeResidual>
          <timeWeight>62</timeWeight>
          <pickID>smi:webservices.ingv.it/fdsnws/event/1/query?pickId=504545131</pickID>
          <earthModelID>smi:webservices.ingv.it/fdsnws/event/1/query?earthModelId=1</earthModelID>
          <takeoffAngle>
            <value>50</value>
          </takeoffAngle>
          <creationInfo>
            <agencyID>INGV </agencyID>
            <author>BULLETIN-INGV</author>
            <creationTime>2021-01-19T09:45:31</creationTime>
          </creationInfo>
        </arrival>
        <arrival publicID="smi:webservices.ingv.it/fdsnws/event/1/query?arrivalId=1660095561">
          <phase>P</phase>
          <azimuth>212</azimuth>
          <distance>0.7761</distance>
          <timeResidual>0.13</timeResidual>
          <timeWeight>86</timeWeight>
          <pickID>smi:webservices.ingv.it/fdsnws/event/1/query?pickId=504545141</pickID>
          <earthModelID>smi:webservices.ingv.it/fdsnws/event/1/query?earthModelId=1</earthModelID>
          <takeoffAngle>
            <value>50</value>
          </takeoffAngle>
          <creationInfo>
            <agencyID>INGV </agencyID>
            <author>BULLETIN-INGV</author>
            <creationTime>2021-01-19T09:45:31</creationTime>
          </creationInfo>
        </arrival>
        <arrival publicID="smi:webservices.ingv.it/fdsnws/event/1/query?arrivalId=1660095541">
          <phase>P</phase>
          <azimuth>131</azimuth>
          <distance>0.7536</distance>
          <timeResidual>-0.02</timeResidual>
          <timeWeight>67</timeWeight>
          <pickID>smi:webservices.ingv.it/fdsnws/event/1/query?pickId=504545121</pickID>
          <earthModelID>smi:webservices.ingv.it/fdsnws/event/1/query?earthModelId=1</earthModelID>
          <takeoffAngle>
            <value>50</value>
          </takeoffAngle>
          <creationInfo>
            <agencyID>INGV </agencyID>
            <author>BULLETIN-INGV</author>
            <creationTime>2021-01-19T09:45:31</creationTime>
          </creationInfo>
        </arrival>
        <arrival publicID="smi:webservices.ingv.it/fdsnws/event/1/query?arrivalId=1660095271">
          <phase>S</phase>
          <azimuth>216</azimuth>
          <distance>0.3867</distance>
          <timeResidual>-0.1</timeResidual>
          <timeWeight>47</timeWeight>
          <pickID>smi:webservices.ingv.it/fdsnws/event/1/query?pickId=504544941</pickID>
          <earthModelID>smi:webservices.ingv.it/fdsnws/event/1/query?earthModelId=1</earthModelID>
          <takeoffAngle>
            <value>50</value>
          </takeoffAngle>
          <creationInfo>
            <agencyID>INGV </agencyID>
            <author>BULLETIN-INGV</author>
            <creationTime>2021-01-19T09:45:31</creationTime>
          </creationInfo>
        </arrival>
        <arrival publicID="smi:webservices.ingv.it/fdsnws/event/1/query?arrivalId=1660095531">
          <phase>P</phase>
          <azimuth>98</azimuth>
          <distance>0.6232</distance>
          <timeResidual>1.02</timeResidual>
          <timeWeight>66</timeWeight>
          <pickID>smi:webservices.ingv.it/fdsnws/event/1/query?pickId=504545101</pickID>
          <earthModelID>smi:webservices.ingv.it/fdsnws/event/1/query?earthModelId=1</earthModelID>
          <takeoffAngle>
            <value>50</value>
          </takeoffAngle>
          <creationInfo>
            <agencyID>INGV </agencyID>
            <author>BULLETIN-INGV</author>
            <creationTime>2021-01-19T09:45:31</creationTime>
          </creationInfo>
        </arrival>
        <arrival publicID="smi:webservices.ingv.it/fdsnws/event/1/query?arrivalId=1660095211">
          <phase>S</phase>
          <azimuth>296</azimuth>
          <distance>0.3363</distance>
          <timeResidual>-0.36</timeResidual>
          <timeWeight>45</timeWeight>
          <pickID>smi:webservices.ingv.it/fdsnws/event/1/query?pickId=504544881</pickID>
          <earthModelID>smi:webservices.ingv.it/fdsnws/event/1/query?earthModelId=1</earthModelID>
          <takeoffAngle>
            <value>50</value>
          </takeoffAngle>
          <creationInfo>
            <agencyID>INGV </agencyID>
            <author>BULLETIN-INGV</author>
            <creationTime>2021-01-19T09:45:31</creationTime>
          </creationInfo>
        </arrival>
        <arrival publicID="smi:webservices.ingv.it/fdsnws/event/1/query?arrivalId=1660095151">
          <phase>S</phase>
          <azimuth>149</azimuth>
          <distance>0.3022</distance>
          <timeResidual>0.3</timeResidual>
          <timeWeight>69</timeWeight>
          <pickID>smi:webservices.ingv.it/fdsnws/event/1/query?pickId=504545261</pickID>
          <earthModelID>smi:webservices.ingv.it/fdsnws/event/1/query?earthModelId=1</earthModelID>
          <takeoffAngle>
            <value>50</value>
          </takeoffAngle>
          <creationInfo>
            <agencyID>INGV </agencyID>
            <author>BULLETIN-INGV</author>
            <creationTime>2021-01-19T09:45:31</creationTime>
          </creationInfo>
        </arrival>
        <arrival publicID="smi:webservices.ingv.it/fdsnws/event/1/query?arrivalId=1660095191">
          <phase>S</phase>
          <azimuth>144</azimuth>
          <distance>0.3265</distance>
          <timeResidual>-0.1</timeResidual>
          <timeWeight>48</timeWeight>
          <pickID>smi:webservices.ingv.it/fdsnws/event/1/query?pickId=504544861</pickID>
          <earthModelID>smi:webservices.ingv.it/fdsnws/event/1/query?earthModelId=1</earthModelID>
          <takeoffAngle>
            <value>50</value>
          </takeoffAngle>
          <creationInfo>
            <agencyID>INGV </agencyID>
            <author>BULLETIN-INGV</author>
            <creationTime>2021-01-19T09:45:31</creationTime>
          </creationInfo>
        </arrival>
        <arrival publicID="smi:webservices.ingv.it/fdsnws/event/1/query?arrivalId=1660095501">
          <phase>P</phase>
          <azimuth>177</azimuth>
          <distance>0.6259</distance>
          <timeResidual>-0.12</timeResidual>
          <timeWeight>22</timeWeight>
          <pickID>smi:webservices.ingv.it/fdsnws/event/1/query?pickId=504545091</pickID>
          <earthModelID>smi:webservices.ingv.it/fdsnws/event/1/query?earthModelId=1</earthModelID>
          <takeoffAngle>
            <value>50</value>
          </takeoffAngle>
          <creationInfo>
            <agencyID>INGV </agencyID>
            <author>BULLETIN-INGV</author>
            <creationTime>2021-01-19T09:45:31</creationTime>
          </creationInfo>
        </arrival>
        <arrival publicID="smi:webservices.ingv.it/fdsnws/event/1/query?arrivalId=1660095171">
          <phase>S</phase>
          <azimuth>72</azimuth>
          <distance>0.2995</distance>
          <timeResidual>0.52</timeResidual>
          <timeWeight>44</timeWeight>
          <pickID>smi:webservices.ingv.it/fdsnws/event/1/query?pickId=504544841</pickID>
          <earthModelID>smi:webservices.ingv.it/fdsnws/event/1/query?earthModelId=1</earthModelID>
          <takeoffAngle>
            <value>50</value>
          </takeoffAngle>
          <creationInfo>
            <agencyID>INGV </agencyID>
            <author>BULLETIN-INGV</author>
            <creationTime>2021-01-19T09:45:31</creationTime>
          </creationInfo>
        </arrival>
        <arrival publicID="smi:webservices.ingv.it/fdsnws/event/1/query?arrivalId=1660095481">
          <phase>P</phase>
          <azimuth>155</azimuth>
          <distance>0.5927</distance>
          <timeResidual>0.04</timeResidual>
          <timeWeight>69</timeWeight>
