<?xml version="1.0" encoding="US-ASCII" standalone="yes"?>
<q:quakeml xmlns:q="http://quakeml.org/xmlns/quakeml/1.2" xmlns="http://quakeml.org/xmlns/bed/1.2" xmlns:ingv="http://webservices.ingv.it/fdsnws/event/1">
  <eventParameters publicID="smi:webservices.ingv.it/fdsnws/event/1/query">
    <event publicID="smi:webservices.ingv.it/fdsnws/event/1/query?eventId=25883871">
      <type>earthquake</type>
      <description>
        <type>region name</type>
        <text>Confine Austria-Svizzera (AUSTRIA, SVIZZERA)</text>
      </description>
      <preferredMagnitudeID>smi:webservices.ingv.it/fdsnws/event/1/query?magnitudeId=91710271</preferredMagnitudeID>
      <preferredOriginID>smi:webservices.ingv.it/fdsnws/event/1/query?originId=85930471</preferredOriginID>
      <creationInfo>
        <agencyID>INGV</agencyID>
        <author>hew10_mole#MOD_EQASSEMBLE</author>
        <creationTime>2021-01-01T02:28:49</creationTime>
        <ingv:id_locator>289056</ingv:id_locator>
      </creationInfo>
      <origin publicID="smi:webservices.ingv.it/fdsnws/event/1/query?originId=85930471">
        <evaluationMode>manual</evaluationMode>
        <type>hypocenter</type>
        <time>
          <value>2021-01-01T02:27:08.390000</value>
          <uncertainty>0.18</uncertainty>
        </time>
        <latitude>
          <value>46.8173</value>
          <uncertainty>0.0099</uncertainty>
        </latitude>
        <longitude>
          <value>10.0878</value>
          <uncertainty>0.0079</uncertainty>
        </longitude>
        <depth>
          <value>8400</value>
          <uncertainty>600</uncertainty>
        </depth>
        <depthType>from location</depthType>
        <originUncertainty>
          <preferredDescription>uncertainty ellipse</preferredDescription>
          <horizontalUncertainty>1170.0</horizontalUncertainty>
          <minHorizontalUncertainty>319</minHorizontalUncertainty>
          <maxHorizontalUncertainty>1168</maxHorizontalUncertainty>
          <azimuthMaxHorizontalUncertainty>19</azimuthMaxHorizontalUncertainty>
          <confidenceLevel>68</confidenceLevel>
        </originUncertainty>
        <quality>
          <azimuthalGap>186</azimuthalGap>
          <associatedPhaseCount>19</associatedPhaseCount>
          <usedPhaseCount>13</usedPhaseCount>
          <standardError>0.22</standardError>
          <minimumDistance>0.00000</minimumDistance>
          <maximumDistance>0.61424</maximumDistance>
          <associatedStationCount>13</associatedStationCount>
          <usedStationCount>7</usedStationCount>
        </quality>
        <evaluationStatus>reviewed</evaluationStatus>
        <methodID>smi:webservices.ingv.it/fdsnws/event/1/query?methodId=1</methodID>
        <earthModelID>smi:webservices.ingv.it/fdsnws/event/1/query?earthModelId=1</earthModelID>
        <creationInfo>
          <agencyID>INGV</agencyID>
          <author>SURVEY-INGV</author>
          <version>100</version>
          <creationTime>2021-01-01T02:34:56</creationTime>
        </creationInfo>
        <arrival publicID="smi:webservices.ingv.it/fdsnws/event/1/query?arrivalId=1648699351">
          <phase>Sn</phase>
          <timeResidual>-9.59</timeResidual>
          <timeWeight>0</timeWeight>
          <pickID>smi:webservices.ingv.it/fdsnws/event/1/query?pickId=503128671</pickID>
          <earthModelID>smi:webservices.ingv.it/fdsnws/event/1/query?earthModelId=1</earthModelID>
          <creationInfo>
            <agencyID>INGV </agencyID>
            <author>SURVEY-INGV</author>
            <creationTime>2021-01-01T02:34:56</creationTime>
          </creationInfo>
        </arrival>
        <arrival publicID="smi:webservices.ingv.it/fdsnws/event/1/query?arrivalId=1648699341">
          <phase>Pg</phase>
          <timeResidual>11.8</timeResidual>
          <timeWeight>0</timeWeight>
          <pickID>smi:webservices.ingv.it/fdsnws/event/1/query?pickId=503128661</pickID>
          <earthModelID>smi:webservices.ingv.it/fdsnws/event/1/query?earthModelId=1</earthModelID>
          <creationInfo>
            <agencyID>INGV </agencyID>
            <author>SURVEY-INGV</author>
            <creationTime>2021-01-01T02:34:56</creationTime>
          </creationInfo>
        </arrival>
        <arrival publicID="smi:webservices.ingv.it/fdsnws/event/1/query?arrivalId=1648699331">
          <phase>Sn</phase>
          <timeResidual>-9.99</timeResidual>
          <timeWeight>0</timeWeight>
          <pickID>smi:webservices.ingv.it/fdsnws/event/1/query?pickId=503128651</pickID>
          <earthModelID>smi:webservices.ingv.it/fdsnws/event/1/query?earthModelId=1</earthModelID>
          <creationInfo>
            <agencyID>INGV </agencyID>
            <author>SURVEY-INGV</author>
            <creationTime>2021-01-01T02:34:56</creationTime>
          </creationInfo>
        </arrival>
        <arrival publicID="smi:webservices.ingv.it/fdsnws/event/1/query?arrivalId=1648699321">
          <phase>Sg</phase>
          <timeResidual>-3.32</timeResidual>
          <timeWeight>0</timeWeight>
          <pickID>smi:webservices.ingv.it/fdsnws/event/1/query?pickId=503128641</pickID>
          <earthModelID>smi:webservices.ingv.it/fdsnws/event/1/query?earthModelId=1</earthModelID>
          <creationInfo>
            <agencyID>INGV </agencyID>
            <author>SURVEY-INGV</author>
            <creationTime>2021-01-01T02:34:56</creationTime>
          </creationInfo>
        </arrival>
        <arrival publicID="smi:webservices.ingv.it/fdsnws/event/1/query?arrivalId=1648699311">
          <phase>Sg</phase>
          <timeResidual>0.21</timeResidual>
          <timeWeight>0</timeWeight>
          <pickID>smi:webservices.ingv.it/fdsnws/event/1/query?pickId=503128631</pickID>
          <earthModelID>smi:webservices.ingv.it/fdsnws/event/1/query?earthModelId=1</earthModelID>
          <creationInfo>
            <agencyID>INGV </agencyID>
            <author>SURVEY-INGV</author>
            <creationTime>2021-01-01T02:34:56</creationTime>
          </creationInfo>
        </arrival>
        <arrival publicID="smi:webservices.ingv.it/fdsnws/event/1/query?arrivalId=1648699301">
          <phase>Sg</phase>
          <timeResidual>-4.59</timeResidual>
          <timeWeight>0</timeWeight>
          <pickID>smi:webservices.ingv.it/fdsnws/event/1/query?pickId=503128621</pickID>
          <earthModelID>smi:webservices.ingv.it/fdsnws/event/1/query?earthModelId=1</earthModelID>
          <creationInfo>
            <agencyID>INGV </agencyID>
            <author>SURVEY-INGV</author>
            <creationTime>2021-01-01T02:34:56</creationTime>
          </creationInfo>
        </arrival>
        <arrival publicID="smi:webservices.ingv.it/fdsnws/event/1/query?arrivalId=1648699401">
          <phase>S</phase>
          <azimuth>236</azimuth>
          <distance>0.6142</distance>
          <timeResidual>0.16</timeResidual>
          <timeWeight>66</timeWeight>
          <pickID>smi:webservices.ingv.it/fdsnws/event/1/query?pickId=503128721</pickID>
          <earthModelID>smi:webservices.ingv.it/fdsnws/event/1/query?earthModelId=1</earthModelID>
          <takeoffAngle>
            <value>50</value>
          </takeoffAngle>
          <creationInfo>
            <agencyID>INGV </agencyID>
            <author>SURVEY-INGV</author>
            <creationTime>2021-01-01T02:34:56</creationTime>
          </creationInfo>
        </arrival>
        <arrival publicID="smi:webservices.ingv.it/fdsnws/event/1/query?arrivalId=1648699231">
          <phase>S</phase>
          <azimuth>186</azimuth>
          <distance>0.4056</distance>
          <timeResidual>0.15</timeResidual>
          <timeWeight>46</timeWeight>
          <pickID>smi:webservices.ingv.it/fdsnws/event/1/query?pickId=503128551</pickID>
          <earthModelID>smi:webservices.ingv.it/fdsnws/event/1/query?earthModelId=1</earthModelID>
          <takeoffAngle>
            <value>50</value>
          </takeoffAngle>
          <creationInfo>
            <agencyID>INGV </agencyID>
            <author>SURVEY-INGV</author>
            <creationTime>2021-01-01T02:34:56</creationTime>
          </creationInfo>
        </arrival>
        <arrival publicID="smi:webservices.ingv.it/fdsnws/event/1/query?arrivalId=1648699291">
          <phase>S</phase>
          <azimuth>122</azimuth>
          <distance>0.3750</distance>
          <timeResidual>0.6</timeResidual>
          <timeWeight>41</timeWeight>
          <pickID>smi:webservices.ingv.it/fdsnws/event/1/query?pickId=503128611</pickID>
          <earthModelID>smi:webservices.ingv.it/fdsnws/event/1/query?earthModelId=1</earthModelID>
          <takeoffAngle>
            <value>50</value>
          </takeoffAngle>
          <creationInfo>
            <agencyID>INGV </agencyID>
            <author>SURVEY-INGV</author>
            <creationTime>2021-01-01T02:34:56</creationTime>
          </creationInfo>
        </arrival>
        <arrival publicID="smi:webservices.ingv.it/fdsnws/event/1/query?arrivalId=1648699371">
          <phase>S</phase>
          <azimuth>150</azimuth>
          <distance>0.3930</distance>
          <timeResidual>-0.41</timeResidual>
          <timeWeight>88</timeWeight>
          <pickID>smi:webservices.ingv.it/fdsnws/event/1/query?pickId=503128691</pickID>
          <earthModelID>smi:webservices.ingv.it/fdsnws/event/1/query?earthModelId=1</earthModelID>
          <takeoffAngle>
            <value>50</value>
          </takeoffAngle>
          <creationInfo>
            <agencyID>INGV </agencyID>
            <author>SURVEY-INGV</author>
            <creationTime>2021-01-01T02:34:56</creationTime>
          </creationInfo>
        </arrival>
        <arrival publicID="smi:webservices.ingv.it/fdsnws/event/1/query?arrivalId=1648699391">
          <phase>P</phase>
          <azimuth>236</azimuth>
          <distance>0.6142</distance>
          <timeResidual>0.09</timeResidual>
          <timeWeight>45</timeWeight>
          <pickID>smi:webservices.ingv.it/fdsnws/event/1/query?pickId=503128711</pickID>
          <earthModelID>smi:webservices.ingv.it/fdsnws/event/1/query?earthModelId=1</earthModelID>
          <takeoffAngle>
            <value>50</value>
          </takeoffAngle>
          <creationInfo>
            <agencyID>INGV </agencyID>
            <author>SURVEY-INGV</author>
            <creationTime>2021-01-01T02:34:56</creationTime>
          </creationInfo>
        </arrival>
        <arrival publicID="smi:webservices.ingv.it/fdsnws/event/1/query?arrivalId=1648699381">
          <phase>P</phase>
          <azimuth>296</azimuth>
          <distance>0.5351</distance>
          <timeResidual>0</timeResidual>
          <timeWeight>46</timeWeight>
          <pickID>smi:webservices.ingv.it/fdsnws/event/1/query?pickId=503128701</pickID>
          <earthModelID>smi:webservices.ingv.it/fdsnws/event/1/query?earthModelId=1</earthModelID>
          <takeoffAngle>
            <value>50</value>
          </takeoffAngle>
          <creationInfo>
            <agencyID>INGV </agencyID>
            <author>SURVEY-INGV</author>
            <creationTime>2021-01-01T02:34:56</creationTime>
          </creationInfo>
        </arrival>
        <arrival publicID="smi:webservices.ingv.it/fdsnws/event/1/query?arrivalId=1648699271">
          <phase>S</phase>
          <azimuth>148</azimuth>
          <distance>0.2311</distance>
          <timeResidual>0.1</timeResidual>
          <timeWeight>48</timeWeight>
          <pickID>smi:webservices.ingv.it/fdsnws/event/1/query?pickId=503128591</pickID>
          <earthModelID>smi:webservices.ingv.it/fdsnws/event/1/query?earthModelId=1</earthModelID>
          <takeoffAngle>
            <value>108</value>
          </takeoffAngle>
          <creationInfo>
            <agencyID>INGV </agencyID>
            <author>SURVEY-INGV</author>
            <creationTime>2021-01-01T02:34:56</creationTime>
          </creationInfo>
        </arrival>
        <arrival publicID="smi:webservices.ingv.it/fdsnws/event/1/query?arrivalId=1648699221">
          <phase>P</phase>
          <azimuth>186</azimuth>
          <distance>0.4056</distance>
          <timeResidual>0.31</timeResidual>
          <timeWeight>22</timeWeight>
          <pickID>smi:webservices.ingv.it/fdsnws/event/1/query?pickId=503128541</pickID>
          <earthModelID>smi:webservices.ingv.it/fdsnws/event/1/query?earthModelId=1</earthModelID>
          <takeoffAngle>
            <value>50</value>
          </takeoffAngle>
          <creationInfo>
            <agencyID>INGV </agencyID>
            <author>SURVEY-INGV</author>
            <creationTime>2021-01-01T02:34:56</creationTime>
          </creationInfo>
        </arrival>
        <arrival publicID="smi:webservices.ingv.it/fdsnws/event/1/query?arrivalId=1648699281">
          <phase>P</phase>
          <azimuth>122</azimuth>
          <distance>0.3750</distance>
          <timeResidual>-0.19</timeResidual>
          <timeWeight>69</timeWeight>
          <pickID>smi:webservices.ingv.it/fdsnws/event/1/query?pickId=503128601</pickID>
          <earthModelID>smi:webservices.ingv.it/fdsnws/event/1/query?earthModelId=1</earthModelID>
          <takeoffAngle>
            <value>50</value>
          </takeoffAngle>
          <creationInfo>
            <agencyID>INGV </agencyID>
            <author>SURVEY-INGV</author>
            <creationTime>2021-01-01T02:34:56</creationTime>
          </creationInfo>
        </arrival>
        <arrival publicID="smi:webservices.ingv.it/fdsnws/event/1/query?arrivalId=1648699361">
          <phase>P</phase>
          <azimuth>150</azimuth>
          <distance>0.3930</distance>
          <timeResidual>-0.28</timeResidual>
          <timeWeight>45</timeWeight>
          <pickID>smi:webservices.ingv.it/fdsnws/event/1/query?pickId=503128681</pickID>
          <earthModelID>smi:webservices.ingv.it/fdsnws/event/1/query?earthModelId=1</earthModelID>
          <takeoffAngle>
            <value>50</value>
          </takeoffAngle>
          <creationInfo>
            <agencyID>INGV </agencyID>
            <author>SURVEY-INGV</author>
            <creationTime>2021-01-01T02:34:56</creationTime>
          </creationInfo>
        </arrival>
        <arrival publicID="smi:webservices.ingv.it/fdsnws/event/1/query?arrivalId=1648699251">
          <phase>S</phase>
          <azimuth>256</azimuth>
          <distance>0.1475</distance>
          <timeResidual>-0.21</timeResidual>
          <timeWeight>48</timeWeight>
          <pickID>smi:webservices.ingv.it/fdsnws/event/1/query?pickId=503128571</pickID>
          <earthModelID>smi:webservices.ingv.it/fdsnws/event/1/query?earthModelId=1</earthModelID>
          <takeoffAngle>
            <value>117</value>
          </takeoffAngle>
          <creationInfo>
            <agencyID>INGV </agencyID>
            <author>SURVEY-INGV</author>
            <creationTime>2021-01-01T02:34:56</creationTime>
          </creationInfo>
        </arrival>
        <arrival publicID="smi:webservices.ingv.it/fdsnws/event/1/query?arrivalId=1648699261">
          <phase>P</phase>
          <azimuth>148</azimuth>
          <distance>0.2311</distance>
          <timeResidual>0.25</timeResidual>
          <timeWeight>47</timeWeight>
          <pickID>smi:webservices.ingv.it/fdsnws/event/1/query?pickId=503128581</pickID>
          <earthModelID>smi:webservices.ingv.it/fdsnws/event/1/query?earthModelId=1</earthModelID>
          <takeoffAngle>
            <value>108</value>
          </takeoffAngle>
          <creationInfo>
            <agencyID>INGV </agencyID>
            <author>SURVEY-INGV</author>
            <creationTime>2021-01-01T02:34:56</creationTime>
          </creationInfo>
        </arrival>
        <arrival publicID="smi:webservices.ingv.it/fdsnws/event/1/query?arrivalId=1648699241">
          <phase>P</phase>
          <azimuth>256</azimuth>
          <distance>0.1475</distance>
          <timeResidual>0.01</timeResidual>
          <timeWeight>100</timeWeight>
          <pickID>smi:webservices.ingv.it/fdsnws/event/1/query?pickId=503128561</pickID>
          <earthModelID>smi:webservices.ingv.it/fdsnws/event/1/query?earthModelId=1</earthModelID>
          <takeoffAngle>
            <value>117</value>
          </takeoffAngle>
          <creationInfo>
            <agencyID>INGV </agencyID>
            <author>SURVEY-INGV</author>
            <creationTime>2021-01-01T02:34:56</creationTime>
          </creationInfo>
        </arrival>
      </origin>
      <stationMagnitude publicID="smi:webservices.ingv.it/fdsnws/event/1/query?stationMagnitudeId=amp-534522111">
        <mag>
          <value>1.5</value>
        </mag>
        <originID>smi:webservices.ingv.it/fdsnws/event/1/query?originId=85930471</originID>
        <methodID>smi:webservices.ingv.it/fdsnws/event/1/query?methodId=1</methodID>
        <amplitudeID>smi:webservices.ingv.it/fdsnws/event/1/query?amplitudeId=amp-470158211</amplitudeID>
        <type>ML</type>
        <creationInfo>
          <agencyID>INGV</agencyID>
          <creationTime>2021-01-01T02:34:56</creationTime>
        </creationInfo>
        <comment>
          <text>original mag_type: ML</text>
        </comment>
        <waveformID networkCode="CH" stationCode="DAVOX" channelCode="HHN" locationCode=""/>
      </stationMagnitude>
      <stationMagnitude publicID="smi:webservices.ingv.it/fdsnws/event/1/query?stationMagnitudeId=amp-534522121">
        <mag>
          <value>1.6</value>
        </mag>
        <originID>smi:webservices.ingv.it/fdsnws/event/1/query?originId=85930471</originID>
        <methodID>smi:webservices.ingv.it/fdsnws/event/1/query?methodId=1</methodID>
        <amplitudeID>smi:webservices.ingv.it/fdsnws/event/1/query?amplitudeId=amp-470158221</amplitudeID>
        <type>ML</type>
        <creationInfo>
          <agencyID>INGV</agencyID>
          <creationTime>2021-01-01T02:34:56</creationTime>
        </creationInfo>
        <comment>
          <text>original mag_type: ML</text>
        </comment>
        <waveformID networkCode="CH" stationCode="DAVOX" channelCode="HHE" locationCode=""/>
      </stationMagnitude>
      <stationMagnitude publicID="smi:webservices.ingv.it/fdsnws/event/1/query?stationMagnitudeId=amp-534522131">
        <mag>
          <value>0.4</value>
        </mag>
        <originID>smi:webservices.ingv.it/fdsnws/event/1/query?originId=85930471</originID>
        <methodID>smi:webservices.ingv.it/fdsnws/event/1/query?methodId=1</methodID>
        <amplitudeID>smi:webservices.ingv.it/fdsnws/event/1/query?amplitudeId=amp-470158231</amplitudeID>
        <type>ML</type>
        <creationInfo>
          <agencyID>INGV</agencyID>
          <creationTime>2021-01-01T02:34:56</creationTime>
        </creationInfo>
        <comment>
          <text>original mag_type: ML</text>
        </comment>
        <waveformID networkCode="CH" stationCode="FUORN" channelCode="HHE" locationCode=""/>
      </stationMagnitude>
      <stationMagnitude publicID="smi:webservices.ingv.it/fdsnws/event/1/query?stationMagnitudeId=amp-534522141">
        <mag>
          <value>0.5</value>
        </mag>
        <originID>smi:webservices.ingv.it/fdsnws/event/1/query?originId=85930471</originID>
        <methodID>smi:webservices.ingv.it/fdsnws/event/1/query?methodId=1</methodID>
        <amplitudeID>smi:webservices.ingv.it/fdsnws/event/1/query?amplitudeId=amp-470158241</amplitudeID>
        <type>ML</type>
        <creationInfo>
          <agencyID>INGV</agencyID>
          <creationTime>2021-01-01T02:34:56</creationTime>
        </creationInfo>
        <comment>
          <text>original mag_type: ML</text>
        </comment>
        <waveformID networkCode="CH" stationCode="FUORN" channelCode="HHN" locationCode=""/>
      </stationMagnitude>
      <stationMagnitude publicID="smi:webservices.ingv.it/fdsnws/event/1/query?stationMagnitudeId=amp-534522151">
        <mag>
          <value>1.0</value>
        </mag>
