<?xml version="1.0" encoding="US-ASCII" standalone="yes"?>
<q:quakeml xmlns:q="http://quakeml.org/xmlns/quakeml/1.2" xmlns="http://quakeml.org/xmlns/bed/1.2" xmlns:ingv="http://webservices.ingv.it/fdsnws/event/1">
  <eventParameters publicID="smi:webservices.ingv.it/fdsnws/event/1/query">
    <event publicID="smi:webservices.ingv.it/fdsnws/event/1/query?eventId=25883171">
      <type>earthquake</type>
      <description>
        <type>region name</type>
        <text>4 km NE Ragalna (CT)</text>
      </description>
      <preferredMagnitudeID>smi:webservices.ingv.it/fdsnws/event/1/query?magnitudeId=92226961</preferredMagnitudeID>
      <preferredOriginID>smi:webservices.ingv.it/fdsnws/event/1/query?originId=86352251</preferredOriginID>
      <creationInfo>
        <agencyID>INGV</agencyID>
        <author>hew3_mole#MOD_EQASSEMBLE</author>
        <creationTime>2021-01-01T00:12:30</creationTime>
        <ingv:id_locator>434102</ingv:id_locator>
      </creationInfo>
      <origin publicID="smi:webservices.ingv.it/fdsnws/event/1/query?originId=86352251">
        <evaluationMode>manual</evaluationMode>
        <type>hypocenter</type>
        <time>
          <value>2021-01-01T00:12:15.320000</value>
          <uncertainty>0.07</uncertainty>
        </time>
        <latitude>
          <value>37.6647</value>
          <uncertainty>0.0036</uncertainty>
        </latitude>
        <longitude>
          <value>14.9638</value>
          <uncertainty>0.0068</uncertainty>
        </longitude>
        <depth>
          <value>15500</value>
          <uncertainty>700</uncertainty>
        </depth>
        <depthType>from location</depthType>
        <originUncertainty>
          <preferredDescription>uncertainty ellipse</preferredDescription>
          <horizontalUncertainty>530.0</horizontalUncertainty>
          <minHorizontalUncertainty>265</minHorizontalUncertainty>
          <maxHorizontalUncertainty>533</maxHorizontalUncertainty>
          <azimuthMaxHorizontalUncertainty>95</azimuthMaxHorizontalUncertainty>
          <confidenceLevel>68</confidenceLevel>
        </originUncertainty>
        <quality>
          <azimuthalGap>38</azimuthalGap>
          <associatedPhaseCount>79</associatedPhaseCount>
          <usedPhaseCount>79</usedPhaseCount>
          <standardError>0.28</standardError>
          <minimumDistance>0.02968</minimumDistance>
          <maximumDistance>2.11610</maximumDistance>
          <associatedStationCount>61</associatedStationCount>
          <usedStationCount>61</usedStationCount>
        </quality>
        <evaluationStatus>reviewed</evaluationStatus>
        <methodID>smi:webservices.ingv.it/fdsnws/event/1/query?methodId=1</methodID>
        <earthModelID>smi:webservices.ingv.it/fdsnws/event/1/query?earthModelId=1</earthModelID>
        <creationInfo>
          <agencyID>INGV</agencyID>
          <author>BULLETIN-INGV</author>
          <version>1000</version>
          <creationTime>2021-07-12T16:54:55</creationTime>
        </creationInfo>
        <arrival publicID="smi:webservices.ingv.it/fdsnws/event/1/query?arrivalId=1659496521">
          <phase>P</phase>
          <azimuth>42</azimuth>
          <distance>2.0657</distance>
          <timeResidual>0.04</timeResidual>
          <timeWeight>0</timeWeight>
          <pickID>smi:webservices.ingv.it/fdsnws/event/1/query?pickId=504487971</pickID>
          <earthModelID>smi:webservices.ingv.it/fdsnws/event/1/query?earthModelId=1</earthModelID>
          <takeoffAngle>
            <value>54</value>
          </takeoffAngle>
          <creationInfo>
            <agencyID>INGV </agencyID>
            <author>BULLETIN-INGV</author>
            <creationTime>2021-01-18T15:11:40</creationTime>
          </creationInfo>
        </arrival>
        <arrival publicID="smi:webservices.ingv.it/fdsnws/event/1/query?arrivalId=1659496511">
          <phase>P</phase>
          <azimuth>34</azimuth>
          <distance>2.1161</distance>
          <timeResidual>-0.79</timeResidual>
          <timeWeight>0</timeWeight>
          <pickID>smi:webservices.ingv.it/fdsnws/event/1/query?pickId=504487961</pickID>
          <earthModelID>smi:webservices.ingv.it/fdsnws/event/1/query?earthModelId=1</earthModelID>
          <takeoffAngle>
            <value>54</value>
          </takeoffAngle>
          <creationInfo>
            <agencyID>INGV </agencyID>
            <author>BULLETIN-INGV</author>
            <creationTime>2021-01-18T15:11:40</creationTime>
          </creationInfo>
        </arrival>
        <arrival publicID="smi:webservices.ingv.it/fdsnws/event/1/query?arrivalId=1659496501">
          <phase>P</phase>
          <azimuth>44</azimuth>
          <distance>1.9254</distance>
          <timeResidual>0.23</timeResidual>
          <timeWeight>0</timeWeight>
          <pickID>smi:webservices.ingv.it/fdsnws/event/1/query?pickId=504487951</pickID>
          <earthModelID>smi:webservices.ingv.it/fdsnws/event/1/query?earthModelId=1</earthModelID>
          <takeoffAngle>
            <value>54</value>
          </takeoffAngle>
          <creationInfo>
            <agencyID>INGV </agencyID>
            <author>BULLETIN-INGV</author>
            <creationTime>2021-01-18T15:11:40</creationTime>
          </creationInfo>
        </arrival>
        <arrival publicID="smi:webservices.ingv.it/fdsnws/event/1/query?arrivalId=1659496491">
          <phase>P</phase>
          <azimuth>22</azimuth>
          <distance>2.0172</distance>
          <timeResidual>-1.58</timeResidual>
          <timeWeight>0</timeWeight>
          <pickID>smi:webservices.ingv.it/fdsnws/event/1/query?pickId=504486711</pickID>
          <earthModelID>smi:webservices.ingv.it/fdsnws/event/1/query?earthModelId=1</earthModelID>
          <takeoffAngle>
            <value>54</value>
          </takeoffAngle>
          <creationInfo>
            <agencyID>INGV </agencyID>
            <author>BULLETIN-INGV</author>
            <creationTime>2021-01-18T15:11:40</creationTime>
          </creationInfo>
        </arrival>
        <arrival publicID="smi:webservices.ingv.it/fdsnws/event/1/query?arrivalId=1659496481">
          <phase>P</phase>
          <azimuth>33</azimuth>
          <distance>1.9488</distance>
          <timeResidual>-1.19</timeResidual>
          <timeWeight>0</timeWeight>
          <pickID>smi:webservices.ingv.it/fdsnws/event/1/query?pickId=504487941</pickID>
          <earthModelID>smi:webservices.ingv.it/fdsnws/event/1/query?earthModelId=1</earthModelID>
          <takeoffAngle>
            <value>54</value>
          </takeoffAngle>
          <creationInfo>
            <agencyID>INGV </agencyID>
            <author>BULLETIN-INGV</author>
            <creationTime>2021-01-18T15:11:40</creationTime>
          </creationInfo>
        </arrival>
        <arrival publicID="smi:webservices.ingv.it/fdsnws/event/1/query?arrivalId=1659496471">
          <phase>P</phase>
          <azimuth>191</azimuth>
          <distance>1.8598</distance>
          <timeResidual>-0.76</timeResidual>
          <timeWeight>0</timeWeight>
          <pickID>smi:webservices.ingv.it/fdsnws/event/1/query?pickId=504487931</pickID>
          <earthModelID>smi:webservices.ingv.it/fdsnws/event/1/query?earthModelId=1</earthModelID>
          <takeoffAngle>
            <value>54</value>
          </takeoffAngle>
          <creationInfo>
            <agencyID>INGV </agencyID>
            <author>BULLETIN-INGV</author>
            <creationTime>2021-01-18T15:11:40</creationTime>
          </creationInfo>
        </arrival>
        <arrival publicID="smi:webservices.ingv.it/fdsnws/event/1/query?arrivalId=1659496451">
          <phase>P</phase>
          <azimuth>307</azimuth>
          <distance>1.7474</distance>
          <timeResidual>-1.58</timeResidual>
          <timeWeight>0</timeWeight>
          <pickID>smi:webservices.ingv.it/fdsnws/event/1/query?pickId=504486701</pickID>
          <earthModelID>smi:webservices.ingv.it/fdsnws/event/1/query?earthModelId=1</earthModelID>
          <takeoffAngle>
            <value>54</value>
          </takeoffAngle>
          <creationInfo>
            <agencyID>INGV </agencyID>
            <author>BULLETIN-INGV</author>
            <creationTime>2021-01-18T15:11:40</creationTime>
          </creationInfo>
        </arrival>
        <arrival publicID="smi:webservices.ingv.it/fdsnws/event/1/query?arrivalId=1659496461">
          <phase>P</phase>
          <azimuth>281</azimuth>
          <distance>1.6125</distance>
          <timeResidual>0.49</timeResidual>
          <timeWeight>0</timeWeight>
          <pickID>smi:webservices.ingv.it/fdsnws/event/1/query?pickId=504487921</pickID>
          <earthModelID>smi:webservices.ingv.it/fdsnws/event/1/query?earthModelId=1</earthModelID>
          <takeoffAngle>
            <value>54</value>
          </takeoffAngle>
          <creationInfo>
            <agencyID>INGV </agencyID>
            <author>BULLETIN-INGV</author>
            <creationTime>2021-01-18T15:11:40</creationTime>
          </creationInfo>
        </arrival>
        <arrival publicID="smi:webservices.ingv.it/fdsnws/event/1/query?arrivalId=1659496441">
          <phase>P</phase>
          <azimuth>276</azimuth>
          <distance>1.5549</distance>
          <timeResidual>0.88</timeResidual>
          <timeWeight>0</timeWeight>
          <pickID>smi:webservices.ingv.it/fdsnws/event/1/query?pickId=504486691</pickID>
          <earthModelID>smi:webservices.ingv.it/fdsnws/event/1/query?earthModelId=1</earthModelID>
          <takeoffAngle>
            <value>54</value>
          </takeoffAngle>
          <creationInfo>
            <agencyID>INGV </agencyID>
            <author>BULLETIN-INGV</author>
            <creationTime>2021-01-18T15:11:40</creationTime>
          </creationInfo>
        </arrival>
        <arrival publicID="smi:webservices.ingv.it/fdsnws/event/1/query?arrivalId=1659496431">
          <phase>P</phase>
          <azimuth>44</azimuth>
          <distance>1.6260</distance>
          <timeResidual>-1.21</timeResidual>
          <timeWeight>0</timeWeight>
          <pickID>smi:webservices.ingv.it/fdsnws/event/1/query?pickId=504487911</pickID>
          <earthModelID>smi:webservices.ingv.it/fdsnws/event/1/query?earthModelId=1</earthModelID>
          <takeoffAngle>
            <value>54</value>
          </takeoffAngle>
          <creationInfo>
            <agencyID>INGV </agencyID>
            <author>BULLETIN-INGV</author>
            <creationTime>2021-01-18T15:11:40</creationTime>
          </creationInfo>
        </arrival>
        <arrival publicID="smi:webservices.ingv.it/fdsnws/event/1/query?arrivalId=1659496421">
          <phase>P</phase>
          <azimuth>265</azimuth>
          <distance>1.4821</distance>
          <timeResidual>-0.89</timeResidual>
          <timeWeight>0</timeWeight>
          <pickID>smi:webservices.ingv.it/fdsnws/event/1/query?pickId=504486681</pickID>
          <earthModelID>smi:webservices.ingv.it/fdsnws/event/1/query?earthModelId=1</earthModelID>
          <takeoffAngle>
            <value>54</value>
          </takeoffAngle>
          <creationInfo>
            <agencyID>INGV </agencyID>
            <author>BULLETIN-INGV</author>
            <creationTime>2021-01-18T15:11:40</creationTime>
          </creationInfo>
        </arrival>
        <arrival publicID="smi:webservices.ingv.it/fdsnws/event/1/query?arrivalId=1659496411">
          <phase>P</phase>
          <azimuth>55</azimuth>
          <distance>1.4002</distance>
          <timeResidual>0.08</timeResidual>
          <timeWeight>0</timeWeight>
          <pickID>smi:webservices.ingv.it/fdsnws/event/1/query?pickId=504487901</pickID>
          <earthModelID>smi:webservices.ingv.it/fdsnws/event/1/query?earthModelId=1</earthModelID>
          <takeoffAngle>
            <value>92</value>
          </takeoffAngle>
          <creationInfo>
            <agencyID>INGV </agencyID>
            <author>BULLETIN-INGV</author>
            <creationTime>2021-01-18T15:11:40</creationTime>
          </creationInfo>
        </arrival>
        <arrival publicID="smi:webservices.ingv.it/fdsnws/event/1/query?arrivalId=1659496401">
          <phase>P</phase>
          <azimuth>291</azimuth>
          <distance>1.2069</distance>
          <timeResidual>0</timeResidual>
          <timeWeight>0</timeWeight>
          <pickID>smi:webservices.ingv.it/fdsnws/event/1/query?pickId=504487891</pickID>
          <earthModelID>smi:webservices.ingv.it/fdsnws/event/1/query?earthModelId=1</earthModelID>
          <takeoffAngle>
            <value>92</value>
          </takeoffAngle>
          <creationInfo>
            <agencyID>INGV </agencyID>
            <author>BULLETIN-INGV</author>
            <creationTime>2021-01-18T15:11:40</creationTime>
          </creationInfo>
        </arrival>
        <arrival publicID="smi:webservices.ingv.it/fdsnws/event/1/query?arrivalId=1659496391">
          <phase>P</phase>
          <azimuth>37</azimuth>
          <distance>1.1880</distance>
          <timeResidual>-0.52</timeResidual>
          <timeWeight>0</timeWeight>
          <pickID>smi:webservices.ingv.it/fdsnws/event/1/query?pickId=504474791</pickID>
          <earthModelID>smi:webservices.ingv.it/fdsnws/event/1/query?earthModelId=1</earthModelID>
          <takeoffAngle>
            <value>92</value>
          </takeoffAngle>
          <creationInfo>
            <agencyID>INGV </agencyID>
            <author>BULLETIN-INGV</author>
            <creationTime>2021-01-18T15:11:40</creationTime>
          </creationInfo>
        </arrival>
        <arrival publicID="smi:webservices.ingv.it/fdsnws/event/1/query?arrivalId=1659496171">
          <phase>S</phase>
          <azimuth>32</azimuth>
          <distance>0.5711</distance>
          <timeResidual>0.6</timeResidual>
          <timeWeight>56</timeWeight>
          <pickID>smi:webservices.ingv.it/fdsnws/event/1/query?pickId=504474521</pickID>
          <earthModelID>smi:webservices.ingv.it/fdsnws/event/1/query?earthModelId=1</earthModelID>
          <takeoffAngle>
            <value>95</value>
          </takeoffAngle>
          <creationInfo>
            <agencyID>INGV </agencyID>
            <author>BULLETIN-INGV</author>
            <creationTime>2021-01-18T15:11:40</creationTime>
          </creationInfo>
        </arrival>
        <arrival publicID="smi:webservices.ingv.it/fdsnws/event/1/query?arrivalId=1659496371">
          <phase>P</phase>
          <azimuth>275</azimuth>
          <distance>0.9605</distance>
          <timeResidual>1.18</timeResidual>
          <timeWeight>0</timeWeight>
          <pickID>smi:webservices.ingv.it/fdsnws/event/1/query?pickId=504486661</pickID>
          <earthModelID>smi:webservices.ingv.it/fdsnws/event/1/query?earthModelId=1</earthModelID>
          <takeoffAngle>
            <value>93</value>
          </takeoffAngle>
          <creationInfo>
            <agencyID>INGV </agencyID>
            <author>BULLETIN-INGV</author>
            <creationTime>2021-01-18T15:11:40</creationTime>
          </creationInfo>
        </arrival>
        <arrival publicID="smi:webservices.ingv.it/fdsnws/event/1/query?arrivalId=1659496381">
          <phase>P</phase>
          <azimuth>286</azimuth>
          <distance>0.9982</distance>
          <timeResidual>0.65</timeResidual>
          <timeWeight>0</timeWeight>
          <pickID>smi:webservices.ingv.it/fdsnws/event/1/query?pickId=504486671</pickID>
          <earthModelID>smi:webservices.ingv.it/fdsnws/event/1/query?earthModelId=1</earthModelID>
          <takeoffAngle>
            <value>93</value>
          </takeoffAngle>
          <creationInfo>
            <agencyID>INGV </agencyID>
            <author>BULLETIN-INGV</author>
            <creationTime>2021-01-18T15:11:40</creationTime>
          </creationInfo>
        </arrival>
        <arrival publicID="smi:webservices.ingv.it/fdsnws/event/1/query?arrivalId=1659496361">
          <phase>P</phase>
          <azimuth>258</azimuth>
          <distance>0.9254</distance>
          <timeResidual>1.6</timeResidual>
          <timeWeight>0</timeWeight>
          <pickID>smi:webservices.ingv.it/fdsnws/event/1/query?pickId=504486651</pickID>
          <earthModelID>smi:webservices.ingv.it/fdsnws/event/1/query?earthModelId=1</earthModelID>
          <takeoffAngle>
            <value>93</value>
          </takeoffAngle>
          <creationInfo>
            <agencyID>INGV </agencyID>
            <author>BULLETIN-INGV</author>
            <creationTime>2021-01-18T15:11:40</creationTime>
          </creationInfo>
        </arrival>
        <arrival publicID="smi:webservices.ingv.it/fdsnws/event/1/query?arrivalId=1659496151">
          <phase>S</phase>
          <azimuth>170</azimuth>
          <distance>0.5144</distance>
          <timeResidual>0.92</timeResidual>
          <timeWeight>54</timeWeight>
          <pickID>smi:webservices.ingv.it/fdsnws/event/1/query?pickId=504474501</pickID>
          <earthModelID>smi:webservices.ingv.it/fdsnws/event/1/query?earthModelId=1</earthModelID>
          <takeoffAngle>
            <value>96</value>
          </takeoffAngle>
          <creationInfo>
            <agencyID>INGV </agencyID>
            <author>BULLETIN-INGV</author>
            <creationTime>2021-01-18T15:11:40</creationTime>
          </creationInfo>
        </arrival>
        <arrival publicID="smi:webservices.ingv.it/fdsnws/event/1/query?arrivalId=1659496351">
          <phase>P</phase>
          <azimuth>331</azimuth>
          <distance>0.9911</distance>
          <timeResidual>-0.25</timeResidual>
          <timeWeight>0</timeWeight>
          <pickID>smi:webservices.ingv.it/fdsnws/event/1/query?pickId=504487881</pickID>
          <earthModelID>smi:webservices.ingv.it/fdsnws/event/1/query?earthModelId=1</earthModelID>
          <takeoffAngle>
            <value>93</value>
          </takeoffAngle>
          <creationInfo>
            <agencyID>INGV </agencyID>
            <author>BULLETIN-INGV</author>
            <creationTime>2021-01-18T15:11:40</creationTime>
          </creationInfo>
        </arrival>
        <arrival publicID="smi:webservices.ingv.it/fdsnws/event/1/query?arrivalId=1659496341">
          <phase>P</phase>
          <azimuth>64</azimuth>
          <distance>0.9524</distance>
          <timeResidual>0.04</timeResidual>
          <timeWeight>0</timeWeight>
          <pickID>smi:webservices.ingv.it/fdsnws/event/1/query?pickId=504487871</pickID>
          <earthModelID>smi:webservices.ingv.it/fdsnws/event/1/query?earthModelId=1</earthModelID>
          <takeoffAngle>
            <value>93</value>
          </takeoffAngle>
          <creationInfo>
            <agencyID>INGV </agencyID>
            <author>BULLETIN-INGV</author>
            <creationTime>2021-01-18T15:11:40</creationTime>
          </creationInfo>
        </arrival>
        <arrival publicID="smi:webservices.ingv.it/fdsnws/event/1/query?arrivalId=1659496311">
          <phase>P</phase>
          <azimuth>341</azimuth>
          <distance>0.9497</distance>
          <timeResidual>-0.5</timeResidual>
          <timeWeight>0</timeWeight>
          <pickID>smi:webservices.ingv.it/fdsnws/event/1/query?pickId=504474691</pickID>
          <earthModelID>smi:webservices.ingv.it/fdsnws/event/1/query?earthModelId=1</earthModelID>
          <takeoffAngle>
            <value>93</value>
          </takeoffAngle>
          <creationInfo>
            <agencyID>INGV </agencyID>
            <author>BULLETIN-INGV</author>
            <creationTime>2021-01-18T15:11:40</creationTime>
          </creationInfo>
        </arrival>
        <arrival publicID="smi:webservices.ingv.it/fdsnws/event/1/query?arrivalId=1659496131">
          <phase>S</phase>
          <azimuth>322</azimuth>
          <distance>0.4712</distance>
          <timeResidual>1.04</timeResidual>
          <timeWeight>36</timeWeight>
