<?xml version="1.0" encoding="US-ASCII" standalone="yes"?>
<q:quakeml xmlns:q="http://quakeml.org/xmlns/quakeml/1.2" xmlns="http://quakeml.org/xmlns/bed/1.2" xmlns:ingv="http://webservices.ingv.it/fdsnws/event/1">
  <eventParameters publicID="smi:webservices.ingv.it/fdsnws/event/1/query">
    <event publicID="smi:webservices.ingv.it/fdsnws/event/1/query?eventId=25883121">
      <type>earthquake</type>
      <description>
        <type>region name</type>
        <text>4 km E Pavullo nel Frignano (MO)</text>
      </description>
      <preferredMagnitudeID>smi:webservices.ingv.it/fdsnws/event/1/query?magnitudeId=92776821</preferredMagnitudeID>
      <preferredOriginID>smi:webservices.ingv.it/fdsnws/event/1/query?originId=86350361</preferredOriginID>
      <creationInfo>
        <agencyID>INGV</agencyID>
        <author>hew10_mole#MOD_EQASSEMBLE</author>
        <creationTime>2021-01-01T00:03:55</creationTime>
        <ingv:id_locator>289037</ingv:id_locator>
      </creationInfo>
      <origin publicID="smi:webservices.ingv.it/fdsnws/event/1/query?originId=86350361">
        <evaluationMode>manual</evaluationMode>
        <type>hypocenter</type>
        <time>
          <value>2021-01-01T00:03:33.230000</value>
          <uncertainty>0.1</uncertainty>
        </time>
        <latitude>
          <value>44.3323</value>
          <uncertainty>0.0063</uncertainty>
        </latitude>
        <longitude>
          <value>10.8898</value>
          <uncertainty>0.0101</uncertainty>
        </longitude>
        <depth>
          <value>26100</value>
          <uncertainty>1100</uncertainty>
        </depth>
        <depthType>from location</depthType>
        <originUncertainty>
          <preferredDescription>uncertainty ellipse</preferredDescription>
          <horizontalUncertainty>780.0</horizontalUncertainty>
          <minHorizontalUncertainty>266</minHorizontalUncertainty>
          <maxHorizontalUncertainty>778</maxHorizontalUncertainty>
          <azimuthMaxHorizontalUncertainty>65</azimuthMaxHorizontalUncertainty>
          <confidenceLevel>68</confidenceLevel>
        </originUncertainty>
        <quality>
          <azimuthalGap>45</azimuthalGap>
          <associatedPhaseCount>54</associatedPhaseCount>
          <usedPhaseCount>54</usedPhaseCount>
          <standardError>0.43</standardError>
          <minimumDistance>0.06475</minimumDistance>
          <maximumDistance>1.65835</maximumDistance>
          <associatedStationCount>42</associatedStationCount>
          <usedStationCount>42</usedStationCount>
        </quality>
        <evaluationStatus>reviewed</evaluationStatus>
        <methodID>smi:webservices.ingv.it/fdsnws/event/1/query?methodId=1</methodID>
        <earthModelID>smi:webservices.ingv.it/fdsnws/event/1/query?earthModelId=1</earthModelID>
        <creationInfo>
          <agencyID>INGV</agencyID>
          <author>BULLETIN-INGV</author>
          <version>1000</version>
          <creationTime>2021-07-12T16:54:55</creationTime>
        </creationInfo>
        <arrival publicID="smi:webservices.ingv.it/fdsnws/event/1/query?arrivalId=1669823031">
          <phase>P</phase>
          <azimuth>354</azimuth>
          <distance>1.6575</distance>
          <timeResidual>0.92</timeResidual>
          <timeWeight>52</timeWeight>
          <pickID>smi:webservices.ingv.it/fdsnws/event/1/query?pickId=504466911</pickID>
          <earthModelID>smi:webservices.ingv.it/fdsnws/event/1/query?earthModelId=1</earthModelID>
          <takeoffAngle>
            <value>54</value>
          </takeoffAngle>
          <creationInfo>
            <agencyID>INGV </agencyID>
            <author>BULLETIN-INGV</author>
            <creationTime>2021-02-04T16:32:02</creationTime>
          </creationInfo>
        </arrival>
        <arrival publicID="smi:webservices.ingv.it/fdsnws/event/1/query?arrivalId=1669823021">
          <phase>P</phase>
          <azimuth>330</azimuth>
          <distance>1.6583</distance>
          <timeResidual>-0.41</timeResidual>
          <timeWeight>16</timeWeight>
          <pickID>smi:webservices.ingv.it/fdsnws/event/1/query?pickId=504466921</pickID>
          <earthModelID>smi:webservices.ingv.it/fdsnws/event/1/query?earthModelId=1</earthModelID>
          <takeoffAngle>
            <value>54</value>
          </takeoffAngle>
          <creationInfo>
            <agencyID>INGV </agencyID>
            <author>BULLETIN-INGV</author>
            <creationTime>2021-02-04T16:32:02</creationTime>
          </creationInfo>
        </arrival>
        <arrival publicID="smi:webservices.ingv.it/fdsnws/event/1/query?arrivalId=1669823011">
          <phase>P</phase>
          <azimuth>339</azimuth>
          <distance>1.5306</distance>
          <timeResidual>0.76</timeResidual>
          <timeWeight>15</timeWeight>
          <pickID>smi:webservices.ingv.it/fdsnws/event/1/query?pickId=504466901</pickID>
          <earthModelID>smi:webservices.ingv.it/fdsnws/event/1/query?earthModelId=1</earthModelID>
          <takeoffAngle>
            <value>54</value>
          </takeoffAngle>
          <creationInfo>
            <agencyID>INGV </agencyID>
            <author>BULLETIN-INGV</author>
            <creationTime>2021-02-04T16:32:02</creationTime>
          </creationInfo>
        </arrival>
        <arrival publicID="smi:webservices.ingv.it/fdsnws/event/1/query?arrivalId=1669822981">
          <phase>P</phase>
          <azimuth>118</azimuth>
          <distance>1.3184</distance>
          <timeResidual>1.62</timeResidual>
          <timeWeight>11</timeWeight>
          <pickID>smi:webservices.ingv.it/fdsnws/event/1/query?pickId=504466891</pickID>
          <earthModelID>smi:webservices.ingv.it/fdsnws/event/1/query?earthModelId=1</earthModelID>
          <takeoffAngle>
            <value>54</value>
          </takeoffAngle>
          <creationInfo>
            <agencyID>INGV </agencyID>
            <author>BULLETIN-INGV</author>
            <creationTime>2021-02-04T16:32:02</creationTime>
          </creationInfo>
        </arrival>
        <arrival publicID="smi:webservices.ingv.it/fdsnws/event/1/query?arrivalId=1669822991">
          <phase>P</phase>
          <azimuth>8</azimuth>
          <distance>1.5621</distance>
          <timeResidual>-1.69</timeResidual>
          <timeWeight>28</timeWeight>
          <pickID>smi:webservices.ingv.it/fdsnws/event/1/query?pickId=504466871</pickID>
          <earthModelID>smi:webservices.ingv.it/fdsnws/event/1/query?earthModelId=1</earthModelID>
          <takeoffAngle>
            <value>54</value>
          </takeoffAngle>
          <creationInfo>
            <agencyID>INGV </agencyID>
            <author>BULLETIN-INGV</author>
            <creationTime>2021-02-04T16:32:02</creationTime>
          </creationInfo>
        </arrival>
        <arrival publicID="smi:webservices.ingv.it/fdsnws/event/1/query?arrivalId=1669822971">
          <phase>P</phase>
          <azimuth>0</azimuth>
          <distance>1.4929</distance>
          <timeResidual>-1.04</timeResidual>
          <timeWeight>14</timeWeight>
          <pickID>smi:webservices.ingv.it/fdsnws/event/1/query?pickId=504460831</pickID>
          <earthModelID>smi:webservices.ingv.it/fdsnws/event/1/query?earthModelId=1</earthModelID>
          <takeoffAngle>
            <value>54</value>
          </takeoffAngle>
          <creationInfo>
            <agencyID>INGV </agencyID>
            <author>BULLETIN-INGV</author>
            <creationTime>2021-02-04T16:32:02</creationTime>
          </creationInfo>
        </arrival>
        <arrival publicID="smi:webservices.ingv.it/fdsnws/event/1/query?arrivalId=1669823001">
          <phase>P</phase>
          <azimuth>353</azimuth>
          <distance>1.4542</distance>
          <timeResidual>-0.15</timeResidual>
          <timeWeight>38</timeWeight>
          <pickID>smi:webservices.ingv.it/fdsnws/event/1/query?pickId=504466881</pickID>
          <earthModelID>smi:webservices.ingv.it/fdsnws/event/1/query?earthModelId=1</earthModelID>
          <takeoffAngle>
            <value>54</value>
          </takeoffAngle>
          <creationInfo>
            <agencyID>INGV </agencyID>
            <author>BULLETIN-INGV</author>
            <creationTime>2021-02-04T16:32:02</creationTime>
          </creationInfo>
        </arrival>
        <arrival publicID="smi:webservices.ingv.it/fdsnws/event/1/query?arrivalId=1669822951">
          <phase>P</phase>
          <azimuth>359</azimuth>
          <distance>1.3643</distance>
          <timeResidual>-0.02</timeResidual>
          <timeWeight>60</timeWeight>
          <pickID>smi:webservices.ingv.it/fdsnws/event/1/query?pickId=504466861</pickID>
          <earthModelID>smi:webservices.ingv.it/fdsnws/event/1/query?earthModelId=1</earthModelID>
          <takeoffAngle>
            <value>54</value>
          </takeoffAngle>
          <creationInfo>
            <agencyID>INGV </agencyID>
            <author>BULLETIN-INGV</author>
            <creationTime>2021-02-04T16:32:02</creationTime>
          </creationInfo>
        </arrival>
        <arrival publicID="smi:webservices.ingv.it/fdsnws/event/1/query?arrivalId=1669822961">
          <phase>P</phase>
          <azimuth>340</azimuth>
          <distance>1.3589</distance>
          <timeResidual>0.33</timeResidual>
          <timeWeight>56</timeWeight>
          <pickID>smi:webservices.ingv.it/fdsnws/event/1/query?pickId=504461041</pickID>
          <earthModelID>smi:webservices.ingv.it/fdsnws/event/1/query?earthModelId=1</earthModelID>
          <takeoffAngle>
            <value>54</value>
          </takeoffAngle>
          <creationInfo>
            <agencyID>INGV </agencyID>
            <author>BULLETIN-INGV</author>
            <creationTime>2021-02-04T16:32:02</creationTime>
          </creationInfo>
        </arrival>
        <arrival publicID="smi:webservices.ingv.it/fdsnws/event/1/query?arrivalId=1669822831">
          <phase>S</phase>
          <azimuth>138</azimuth>
          <distance>0.6646</distance>
          <timeResidual>0.38</timeResidual>
          <timeWeight>44</timeWeight>
          <pickID>smi:webservices.ingv.it/fdsnws/event/1/query?pickId=504460721</pickID>
          <earthModelID>smi:webservices.ingv.it/fdsnws/event/1/query?earthModelId=1</earthModelID>
          <takeoffAngle>
            <value>104</value>
          </takeoffAngle>
          <creationInfo>
            <agencyID>INGV </agencyID>
            <author>BULLETIN-INGV</author>
            <creationTime>2021-02-04T16:32:02</creationTime>
          </creationInfo>
        </arrival>
        <arrival publicID="smi:webservices.ingv.it/fdsnws/event/1/query?arrivalId=1669822921">
          <phase>P</phase>
          <azimuth>284</azimuth>
          <distance>1.1718</distance>
          <timeResidual>1.51</timeResidual>
          <timeWeight>35</timeWeight>
          <pickID>smi:webservices.ingv.it/fdsnws/event/1/query?pickId=504466841</pickID>
          <earthModelID>smi:webservices.ingv.it/fdsnws/event/1/query?earthModelId=1</earthModelID>
          <takeoffAngle>
            <value>54</value>
          </takeoffAngle>
          <creationInfo>
            <agencyID>INGV </agencyID>
            <author>BULLETIN-INGV</author>
            <creationTime>2021-02-04T16:32:02</creationTime>
          </creationInfo>
        </arrival>
        <arrival publicID="smi:webservices.ingv.it/fdsnws/event/1/query?arrivalId=1669822791">
          <phase>S</phase>
          <azimuth>203</azimuth>
          <distance>0.6637</distance>
          <timeResidual>0.42</timeResidual>
          <timeWeight>44</timeWeight>
          <pickID>smi:webservices.ingv.it/fdsnws/event/1/query?pickId=504460681</pickID>
          <earthModelID>smi:webservices.ingv.it/fdsnws/event/1/query?earthModelId=1</earthModelID>
          <takeoffAngle>
            <value>104</value>
          </takeoffAngle>
          <creationInfo>
            <agencyID>INGV </agencyID>
            <author>BULLETIN-INGV</author>
            <creationTime>2021-02-04T16:32:02</creationTime>
          </creationInfo>
        </arrival>
        <arrival publicID="smi:webservices.ingv.it/fdsnws/event/1/query?arrivalId=1669822931">
          <phase>P</phase>
          <azimuth>142</azimuth>
          <distance>1.2680</distance>
          <timeResidual>0.38</timeResidual>
          <timeWeight>19</timeWeight>
          <pickID>smi:webservices.ingv.it/fdsnws/event/1/query?pickId=504466851</pickID>
          <earthModelID>smi:webservices.ingv.it/fdsnws/event/1/query?earthModelId=1</earthModelID>
          <takeoffAngle>
            <value>54</value>
          </takeoffAngle>
          <creationInfo>
            <agencyID>INGV </agencyID>
            <author>BULLETIN-INGV</author>
            <creationTime>2021-02-04T16:32:02</creationTime>
          </creationInfo>
        </arrival>
        <arrival publicID="smi:webservices.ingv.it/fdsnws/event/1/query?arrivalId=1669822941">
          <phase>P</phase>
          <azimuth>130</azimuth>
          <distance>1.2752</distance>
          <timeResidual>0.37</timeResidual>
          <timeWeight>57</timeWeight>
          <pickID>smi:webservices.ingv.it/fdsnws/event/1/query?pickId=504466831</pickID>
          <earthModelID>smi:webservices.ingv.it/fdsnws/event/1/query?earthModelId=1</earthModelID>
          <takeoffAngle>
            <value>54</value>
          </takeoffAngle>
          <creationInfo>
            <agencyID>INGV </agencyID>
            <author>BULLETIN-INGV</author>
            <creationTime>2021-02-04T16:32:02</creationTime>
          </creationInfo>
        </arrival>
        <arrival publicID="smi:webservices.ingv.it/fdsnws/event/1/query?arrivalId=1669822911">
          <phase>P</phase>
          <azimuth>10</azimuth>
          <distance>1.3238</distance>
          <timeResidual>-1.86</timeResidual>
          <timeWeight>18</timeWeight>
          <pickID>smi:webservices.ingv.it/fdsnws/event/1/query?pickId=506211891</pickID>
          <earthModelID>smi:webservices.ingv.it/fdsnws/event/1/query?earthModelId=1</earthModelID>
          <takeoffAngle>
            <value>54</value>
          </takeoffAngle>
          <creationInfo>
            <agencyID>INGV </agencyID>
            <author>BULLETIN-INGV</author>
            <creationTime>2021-02-04T16:32:02</creationTime>
          </creationInfo>
        </arrival>
        <arrival publicID="smi:webservices.ingv.it/fdsnws/event/1/query?arrivalId=1669822901">
          <phase>P</phase>
          <azimuth>12</azimuth>
          <distance>0.9955</distance>
          <timeResidual>1.16</timeResidual>
          <timeWeight>29</timeWeight>
          <pickID>smi:webservices.ingv.it/fdsnws/event/1/query?pickId=504461071</pickID>
          <earthModelID>smi:webservices.ingv.it/fdsnws/event/1/query?earthModelId=1</earthModelID>
          <takeoffAngle>
            <value>99</value>
          </takeoffAngle>
          <creationInfo>
            <agencyID>INGV </agencyID>
            <author>BULLETIN-INGV</author>
            <creationTime>2021-02-04T16:32:02</creationTime>
          </creationInfo>
        </arrival>
        <arrival publicID="smi:webservices.ingv.it/fdsnws/event/1/query?arrivalId=1669822881">
          <phase>P</phase>
          <azimuth>133</azimuth>
          <distance>1.0450</distance>
          <timeResidual>0</timeResidual>
          <timeWeight>87</timeWeight>
          <pickID>smi:webservices.ingv.it/fdsnws/event/1/query?pickId=504466801</pickID>
          <earthModelID>smi:webservices.ingv.it/fdsnws/event/1/query?earthModelId=1</earthModelID>
          <takeoffAngle>
            <value>98</value>
          </takeoffAngle>
          <creationInfo>
            <agencyID>INGV </agencyID>
            <author>BULLETIN-INGV</author>
            <creationTime>2021-02-04T16:32:02</creationTime>
          </creationInfo>
        </arrival>
        <arrival publicID="smi:webservices.ingv.it/fdsnws/event/1/query?arrivalId=1669822891">
          <phase>P</phase>
          <azimuth>28</azimuth>
          <distance>1.1691</distance>
          <timeResidual>-1.8</timeResidual>
          <timeWeight>30</timeWeight>
          <pickID>smi:webservices.ingv.it/fdsnws/event/1/query?pickId=504466811</pickID>
          <earthModelID>smi:webservices.ingv.it/fdsnws/event/1/query?earthModelId=1</earthModelID>
          <takeoffAngle>
            <value>54</value>
          </takeoffAngle>
          <creationInfo>
            <agencyID>INGV </agencyID>
            <author>BULLETIN-INGV</author>
            <creationTime>2021-02-04T16:32:02</creationTime>
          </creationInfo>
        </arrival>
        <arrival publicID="smi:webservices.ingv.it/fdsnws/event/1/query?arrivalId=1669822721">
          <phase>S</phase>
          <azimuth>214</azimuth>
          <distance>0.5072</distance>
          <timeResidual>0.63</timeResidual>
          <timeWeight>42</timeWeight>
          <pickID>smi:webservices.ingv.it/fdsnws/event/1/query?pickId=504466681</pickID>
          <earthModelID>smi:webservices.ingv.it/fdsnws/event/1/query?earthModelId=1</earthModelID>
          <takeoffAngle>
            <value>109</value>
          </takeoffAngle>
          <creationInfo>
            <agencyID>INGV </agencyID>
            <author>BULLETIN-INGV</author>
            <creationTime>2021-02-04T16:32:02</creationTime>
          </creationInfo>
        </arrival>
        <arrival publicID="smi:webservices.ingv.it/fdsnws/event/1/query?arrivalId=1669823051">
          <phase>S</phase>
          <azimuth>21</azimuth>
          <distance>0.4533</distance>
          <timeResidual>1.78</timeResidual>
          <timeWeight>23</timeWeight>
          <pickID>smi:webservices.ingv.it/fdsnws/event/1/query?pickId=506211911</pickID>
          <earthModelID>smi:webservices.ingv.it/fdsnws/event/1/query?earthModelId=1</earthModelID>
          <takeoffAngle>
            <value>111</value>
          </takeoffAngle>
          <creationInfo>
            <agencyID>INGV </agencyID>
            <author>BULLETIN-INGV</author>
            <creationTime>2021-02-04T16:32:02</creationTime>
          </creationInfo>
        </arrival>
        <arrival publicID="smi:webservices.ingv.it/fdsnws/event/1/query?arrivalId=1669822871">
          <phase>P</phase>
          <azimuth>161</azimuth>
          <distance>0.9056</distance>
          <timeResidual>0.03</timeResidual>
          <timeWeight>90</timeWeight>
          <pickID>smi:webservices.ingv.it/fdsnws/event/1/query?pickId=504466791</pickID>
          <earthModelID>smi:webservices.ingv.it/fdsnws/event/1/query?earthModelId=1</earthModelID>
          <takeoffAngle>
            <value>100</value>
          </takeoffAngle>
          <creationInfo>
            <agencyID>INGV </agencyID>
            <author>BULLETIN-INGV</author>
            <creationTime>2021-02-04T16:32:02</creationTime>
          </creationInfo>
        </arrival>
        <arrival publicID="smi:webservices.ingv.it/fdsnws/event/1/query?arrivalId=1669822671">
          <phase>S</phase>
          <azimuth>129</azimuth>
          <distance>0.4362</distance>
          <timeResidual>0.5</timeResidual>
          <timeWeight>68</timeWeight>
          <pickID>smi:webservices.ingv.it/fdsnws/event/1/query?pickId=504466641</pickID>
          <earthModelID>smi:webservices.ingv.it/fdsnws/event/1/query?earthModelId=1</earthModelID>
          <takeoffAngle>
            <value>112</value>
          </takeoffAngle>
          <creationInfo>
            <agencyID>INGV </agencyID>
            <author>BULLETIN-INGV</author>
            <creationTime>2021-02-04T16:32:02</creationTime>
          </creationInfo>
        </arrival>
        <arrival publicID="smi:webservices.ingv.it/fdsnws/event/1/query?arrivalId=1669822861">
          <phase>P</phase>
          <azimuth>129</azimuth>
          <distance>0.8391</distance>
          <timeResidual>0.23</timeResidual>
          <timeWeight>87</timeWeight>
