<?xml version="1.0" encoding="US-ASCII" standalone="yes"?>
<q:quakeml xmlns:q="http://quakeml.org/xmlns/quakeml/1.2" xmlns="http://quakeml.org/xmlns/bed/1.2" xmlns:ingv="http://webservices.ingv.it/fdsnws/event/1">
  <eventParameters publicID="smi:webservices.ingv.it/fdsnws/event/1/query">
    <event publicID="smi:webservices.ingv.it/fdsnws/event/1/query?eventId=25883231">
      <type>earthquake</type>
      <description>
        <type>region name</type>
        <text>4 km NE Ragalna (CT)</text>
      </description>
      <preferredMagnitudeID>smi:webservices.ingv.it/fdsnws/event/1/query?magnitudeId=92254131</preferredMagnitudeID>
      <preferredOriginID>smi:webservices.ingv.it/fdsnws/event/1/query?originId=86354971</preferredOriginID>
      <creationInfo>
        <agencyID>INGV</agencyID>
        <author>hew10_mole#MOD_EQASSEMBLE</author>
        <creationTime>2021-01-01T00:17:20</creationTime>
        <ingv:id_locator>289040</ingv:id_locator>
      </creationInfo>
      <origin publicID="smi:webservices.ingv.it/fdsnws/event/1/query?originId=86354971">
        <evaluationMode>manual</evaluationMode>
        <type>hypocenter</type>
        <time>
          <value>2021-01-01T00:17:01.630000</value>
          <uncertainty>0.11</uncertainty>
        </time>
        <latitude>
          <value>37.6625</value>
          <uncertainty>0.0045</uncertainty>
        </latitude>
        <longitude>
          <value>14.9562</value>
          <uncertainty>0.0102</uncertainty>
        </longitude>
        <depth>
          <value>17700</value>
          <uncertainty>1000</uncertainty>
        </depth>
        <depthType>from location</depthType>
        <originUncertainty>
          <preferredDescription>uncertainty ellipse</preferredDescription>
          <horizontalUncertainty>710.0</horizontalUncertainty>
          <minHorizontalUncertainty>570</minHorizontalUncertainty>
          <maxHorizontalUncertainty>713</maxHorizontalUncertainty>
          <azimuthMaxHorizontalUncertainty>83</azimuthMaxHorizontalUncertainty>
          <confidenceLevel>68</confidenceLevel>
        </originUncertainty>
        <quality>
          <azimuthalGap>45</azimuthalGap>
          <associatedPhaseCount>32</associatedPhaseCount>
          <usedPhaseCount>32</usedPhaseCount>
          <standardError>0.31</standardError>
          <minimumDistance>0.03417</minimumDistance>
          <maximumDistance>0.71496</maximumDistance>
          <associatedStationCount>22</associatedStationCount>
          <usedStationCount>22</usedStationCount>
        </quality>
        <evaluationStatus>reviewed</evaluationStatus>
        <methodID>smi:webservices.ingv.it/fdsnws/event/1/query?methodId=1</methodID>
        <earthModelID>smi:webservices.ingv.it/fdsnws/event/1/query?earthModelId=1</earthModelID>
        <creationInfo>
          <agencyID>INGV</agencyID>
          <author>BULLETIN-INGV</author>
          <version>1000</version>
          <creationTime>2021-07-12T16:54:56</creationTime>
        </creationInfo>
        <arrival publicID="smi:webservices.ingv.it/fdsnws/event/1/query?arrivalId=1660089731">
          <phase>S</phase>
          <azimuth>157</azimuth>
          <distance>0.4092</distance>
          <timeResidual>0.63</timeResidual>
          <timeWeight>60</timeWeight>
          <pickID>smi:webservices.ingv.it/fdsnws/event/1/query?pickId=504496661</pickID>
          <earthModelID>smi:webservices.ingv.it/fdsnws/event/1/query?earthModelId=1</earthModelID>
          <takeoffAngle>
            <value>101</value>
          </takeoffAngle>
          <creationInfo>
            <agencyID>INGV </agencyID>
            <author>BULLETIN-INGV</author>
            <creationTime>2021-01-19T08:54:04</creationTime>
          </creationInfo>
        </arrival>
        <arrival publicID="smi:webservices.ingv.it/fdsnws/event/1/query?arrivalId=1660089711">
          <phase>S</phase>
          <azimuth>171</azimuth>
          <distance>0.3840</distance>
          <timeResidual>0.61</timeResidual>
          <timeWeight>41</timeWeight>
          <pickID>smi:webservices.ingv.it/fdsnws/event/1/query?pickId=504496581</pickID>
          <earthModelID>smi:webservices.ingv.it/fdsnws/event/1/query?earthModelId=1</earthModelID>
          <takeoffAngle>
            <value>102</value>
          </takeoffAngle>
          <creationInfo>
            <agencyID>INGV </agencyID>
            <author>BULLETIN-INGV</author>
            <creationTime>2021-01-19T08:54:04</creationTime>
          </creationInfo>
        </arrival>
        <arrival publicID="smi:webservices.ingv.it/fdsnws/event/1/query?arrivalId=1660089801">
          <phase>P</phase>
          <azimuth>169</azimuth>
          <distance>0.7150</distance>
          <timeResidual>-0.11</timeResidual>
          <timeWeight>87</timeWeight>
          <pickID>smi:webservices.ingv.it/fdsnws/event/1/query?pickId=504496621</pickID>
          <earthModelID>smi:webservices.ingv.it/fdsnws/event/1/query?earthModelId=1</earthModelID>
          <takeoffAngle>
            <value>96</value>
          </takeoffAngle>
          <creationInfo>
            <agencyID>INGV </agencyID>
            <author>BULLETIN-INGV</author>
            <creationTime>2021-01-19T08:54:04</creationTime>
          </creationInfo>
        </arrival>
        <arrival publicID="smi:webservices.ingv.it/fdsnws/event/1/query?arrivalId=1660089681">
          <phase>S</phase>
          <azimuth>192</azimuth>
          <distance>0.3211</distance>
          <timeResidual>0.47</timeResidual>
          <timeWeight>43</timeWeight>
          <pickID>smi:webservices.ingv.it/fdsnws/event/1/query?pickId=504496551</pickID>
          <earthModelID>smi:webservices.ingv.it/fdsnws/event/1/query?earthModelId=1</earthModelID>
          <takeoffAngle>
            <value>106</value>
          </takeoffAngle>
          <creationInfo>
            <agencyID>INGV </agencyID>
            <author>BULLETIN-INGV</author>
            <creationTime>2021-01-19T08:54:04</creationTime>
          </creationInfo>
        </arrival>
        <arrival publicID="smi:webservices.ingv.it/fdsnws/event/1/query?arrivalId=1660089791">
          <phase>P</phase>
          <azimuth>227</azimuth>
          <distance>0.6448</distance>
          <timeResidual>0.02</timeResidual>
          <timeWeight>67</timeWeight>
          <pickID>smi:webservices.ingv.it/fdsnws/event/1/query?pickId=504496881</pickID>
          <earthModelID>smi:webservices.ingv.it/fdsnws/event/1/query?earthModelId=1</earthModelID>
          <takeoffAngle>
            <value>96</value>
          </takeoffAngle>
          <creationInfo>
            <agencyID>INGV </agencyID>
            <author>BULLETIN-INGV</author>
            <creationTime>2021-01-19T08:54:04</creationTime>
          </creationInfo>
        </arrival>
        <arrival publicID="smi:webservices.ingv.it/fdsnws/event/1/query?arrivalId=1660089781">
          <phase>P</phase>
          <azimuth>33</azimuth>
          <distance>0.5756</distance>
          <timeResidual>-0.03</timeResidual>
          <timeWeight>68</timeWeight>
          <pickID>smi:webservices.ingv.it/fdsnws/event/1/query?pickId=504542141</pickID>
          <earthModelID>smi:webservices.ingv.it/fdsnws/event/1/query?earthModelId=1</earthModelID>
          <takeoffAngle>
            <value>97</value>
          </takeoffAngle>
          <creationInfo>
            <agencyID>INGV </agencyID>
            <author>BULLETIN-INGV</author>
            <creationTime>2021-01-19T08:54:04</creationTime>
          </creationInfo>
        </arrival>
        <arrival publicID="smi:webservices.ingv.it/fdsnws/event/1/query?arrivalId=1660089761">
          <phase>P</phase>
          <azimuth>322</azimuth>
          <distance>0.4694</distance>
          <timeResidual>0.18</timeResidual>
          <timeWeight>45</timeWeight>
          <pickID>smi:webservices.ingv.it/fdsnws/event/1/query?pickId=504496731</pickID>
          <earthModelID>smi:webservices.ingv.it/fdsnws/event/1/query?earthModelId=1</earthModelID>
          <takeoffAngle>
            <value>100</value>
          </takeoffAngle>
          <creationInfo>
            <agencyID>INGV </agencyID>
            <author>BULLETIN-INGV</author>
            <creationTime>2021-01-19T08:54:04</creationTime>
          </creationInfo>
        </arrival>
        <arrival publicID="smi:webservices.ingv.it/fdsnws/event/1/query?arrivalId=1660089771">
          <phase>P</phase>
          <azimuth>169</azimuth>
          <distance>0.5126</distance>
          <timeResidual>0</timeResidual>
          <timeWeight>92</timeWeight>
          <pickID>smi:webservices.ingv.it/fdsnws/event/1/query?pickId=504542131</pickID>
          <earthModelID>smi:webservices.ingv.it/fdsnws/event/1/query?earthModelId=1</earthModelID>
          <takeoffAngle>
            <value>99</value>
          </takeoffAngle>
          <creationInfo>
            <agencyID>INGV </agencyID>
            <author>BULLETIN-INGV</author>
            <creationTime>2021-01-19T08:54:04</creationTime>
          </creationInfo>
        </arrival>
        <arrival publicID="smi:webservices.ingv.it/fdsnws/event/1/query?arrivalId=1660089621">
          <phase>S</phase>
          <azimuth>358</azimuth>
          <distance>0.1583</distance>
          <timeResidual>0.82</timeResidual>
          <timeWeight>59</timeWeight>
          <pickID>smi:webservices.ingv.it/fdsnws/event/1/query?pickId=504542071</pickID>
          <earthModelID>smi:webservices.ingv.it/fdsnws/event/1/query?earthModelId=1</earthModelID>
          <takeoffAngle>
            <value>127</value>
          </takeoffAngle>
          <creationInfo>
            <agencyID>INGV </agencyID>
            <author>BULLETIN-INGV</author>
            <creationTime>2021-01-19T08:54:04</creationTime>
          </creationInfo>
        </arrival>
        <arrival publicID="smi:webservices.ingv.it/fdsnws/event/1/query?arrivalId=1660089601">
          <phase>S</phase>
          <azimuth>334</azimuth>
          <distance>0.1799</distance>
          <timeResidual>0.55</timeResidual>
          <timeWeight>43</timeWeight>
          <pickID>smi:webservices.ingv.it/fdsnws/event/1/query?pickId=504542051</pickID>
          <earthModelID>smi:webservices.ingv.it/fdsnws/event/1/query?earthModelId=1</earthModelID>
          <takeoffAngle>
            <value>122</value>
          </takeoffAngle>
          <creationInfo>
            <agencyID>INGV </agencyID>
            <author>BULLETIN-INGV</author>
            <creationTime>2021-01-19T08:54:04</creationTime>
          </creationInfo>
        </arrival>
        <arrival publicID="smi:webservices.ingv.it/fdsnws/event/1/query?arrivalId=1660089741">
          <phase>P</phase>
          <azimuth>35</azimuth>
          <distance>0.3777</distance>
          <timeResidual>0.1</timeResidual>
          <timeWeight>93</timeWeight>
          <pickID>smi:webservices.ingv.it/fdsnws/event/1/query?pickId=504496591</pickID>
          <earthModelID>smi:webservices.ingv.it/fdsnws/event/1/query?earthModelId=1</earthModelID>
          <takeoffAngle>
            <value>103</value>
          </takeoffAngle>
          <creationInfo>
            <agencyID>INGV </agencyID>
            <author>BULLETIN-INGV</author>
            <creationTime>2021-01-19T08:54:04</creationTime>
          </creationInfo>
        </arrival>
        <arrival publicID="smi:webservices.ingv.it/fdsnws/event/1/query?arrivalId=1660089751">
          <phase>P</phase>
          <azimuth>350</azimuth>
          <distance>0.3858</distance>
          <timeResidual>0.07</timeResidual>
          <timeWeight>93</timeWeight>
          <pickID>smi:webservices.ingv.it/fdsnws/event/1/query?pickId=504542121</pickID>
          <earthModelID>smi:webservices.ingv.it/fdsnws/event/1/query?earthModelId=1</earthModelID>
          <takeoffAngle>
            <value>102</value>
          </takeoffAngle>
          <creationInfo>
            <agencyID>INGV </agencyID>
            <author>BULLETIN-INGV</author>
            <creationTime>2021-01-19T08:54:04</creationTime>
          </creationInfo>
        </arrival>
        <arrival publicID="smi:webservices.ingv.it/fdsnws/event/1/query?arrivalId=1660089701">
          <phase>P</phase>
          <azimuth>171</azimuth>
          <distance>0.3840</distance>
          <timeResidual>-0.18</timeResidual>
          <timeWeight>91</timeWeight>
          <pickID>smi:webservices.ingv.it/fdsnws/event/1/query?pickId=504496571</pickID>
          <earthModelID>smi:webservices.ingv.it/fdsnws/event/1/query?earthModelId=1</earthModelID>
          <takeoffAngle>
            <value>102</value>
          </takeoffAngle>
          <creationInfo>
            <agencyID>INGV </agencyID>
            <author>BULLETIN-INGV</author>
            <creationTime>2021-01-19T08:54:04</creationTime>
          </creationInfo>
        </arrival>
        <arrival publicID="smi:webservices.ingv.it/fdsnws/event/1/query?arrivalId=1660089721">
          <phase>P</phase>
          <azimuth>157</azimuth>
          <distance>0.4092</distance>
          <timeResidual>-0.56</timeResidual>
          <timeWeight>62</timeWeight>
          <pickID>smi:webservices.ingv.it/fdsnws/event/1/query?pickId=504496651</pickID>
          <earthModelID>smi:webservices.ingv.it/fdsnws/event/1/query?earthModelId=1</earthModelID>
          <takeoffAngle>
            <value>101</value>
          </takeoffAngle>
          <creationInfo>
            <agencyID>INGV </agencyID>
            <author>BULLETIN-INGV</author>
            <creationTime>2021-01-19T08:54:04</creationTime>
          </creationInfo>
        </arrival>
        <arrival publicID="smi:webservices.ingv.it/fdsnws/event/1/query?arrivalId=1660089691">
          <phase>P</phase>
          <azimuth>279</azimuth>
          <distance>0.3121</distance>
          <timeResidual>0.72</timeResidual>
          <timeWeight>59</timeWeight>
          <pickID>smi:webservices.ingv.it/fdsnws/event/1/query?pickId=504542111</pickID>
          <earthModelID>smi:webservices.ingv.it/fdsnws/event/1/query?earthModelId=1</earthModelID>
          <takeoffAngle>
            <value>106</value>
          </takeoffAngle>
          <creationInfo>
            <agencyID>INGV </agencyID>
            <author>BULLETIN-INGV</author>
            <creationTime>2021-01-19T08:54:04</creationTime>
          </creationInfo>
        </arrival>
        <arrival publicID="smi:webservices.ingv.it/fdsnws/event/1/query?arrivalId=1660089671">
          <phase>P</phase>
          <azimuth>192</azimuth>
          <distance>0.3211</distance>
          <timeResidual>-0.45</timeResidual>
          <timeWeight>87</timeWeight>
          <pickID>smi:webservices.ingv.it/fdsnws/event/1/query?pickId=504542101</pickID>
          <earthModelID>smi:webservices.ingv.it/fdsnws/event/1/query?earthModelId=1</earthModelID>
          <takeoffAngle>
            <value>106</value>
          </takeoffAngle>
          <creationInfo>
            <agencyID>INGV </agencyID>
            <author>BULLETIN-INGV</author>
            <creationTime>2021-01-19T08:54:04</creationTime>
          </creationInfo>
        </arrival>
        <arrival publicID="smi:webservices.ingv.it/fdsnws/event/1/query?arrivalId=1660089581">
          <phase>S</phase>
          <azimuth>25</azimuth>
          <distance>0.1421</distance>
          <timeResidual>-0.36</timeResidual>
          <timeWeight>46</timeWeight>
          <pickID>smi:webservices.ingv.it/fdsnws/event/1/query?pickId=504496511</pickID>
          <earthModelID>smi:webservices.ingv.it/fdsnws/event/1/query?earthModelId=1</earthModelID>
          <takeoffAngle>
            <value>130</value>
          </takeoffAngle>
          <creationInfo>
            <agencyID>INGV </agencyID>
            <author>BULLETIN-INGV</author>
            <creationTime>2021-01-19T08:54:04</creationTime>
          </creationInfo>
        </arrival>
        <arrival publicID="smi:webservices.ingv.it/fdsnws/event/1/query?arrivalId=1660089561">
          <phase>S</phase>
          <azimuth>121</azimuth>
          <distance>0.0603</distance>
          <timeResidual>0.47</timeResidual>
          <timeWeight>46</timeWeight>
          <pickID>smi:webservices.ingv.it/fdsnws/event/1/query?pickId=504496491</pickID>
          <earthModelID>smi:webservices.ingv.it/fdsnws/event/1/query?earthModelId=1</earthModelID>
          <takeoffAngle>
            <value>156</value>
          </takeoffAngle>
          <creationInfo>
            <agencyID>INGV </agencyID>
            <author>BULLETIN-INGV</author>
            <creationTime>2021-01-19T08:54:04</creationTime>
          </creationInfo>
        </arrival>
        <arrival publicID="smi:webservices.ingv.it/fdsnws/event/1/query?arrivalId=1660089661">
          <phase>P</phase>
          <azimuth>31</azimuth>
          <distance>0.2554</distance>
          <timeResidual>-0.52</timeResidual>
          <timeWeight>43</timeWeight>
          <pickID>smi:webservices.ingv.it/fdsnws/event/1/query?pickId=504542091</pickID>
          <earthModelID>smi:webservices.ingv.it/fdsnws/event/1/query?earthModelId=1</earthModelID>
          <takeoffAngle>
            <value>111</value>
          </takeoffAngle>
          <creationInfo>
            <agencyID>INGV </agencyID>
            <author>BULLETIN-INGV</author>
            <creationTime>2021-01-19T08:54:04</creationTime>
          </creationInfo>
        </arrival>
        <arrival publicID="smi:webservices.ingv.it/fdsnws/event/1/query?arrivalId=1660089501">
          <phase>S</phase>
          <azimuth>305</azimuth>
          <distance>0.0414</distance>
          <timeResidual>0.16</timeResidual>
          <timeWeight>49</timeWeight>
          <pickID>smi:webservices.ingv.it/fdsnws/event/1/query?pickId=504496701</pickID>
          <earthModelID>smi:webservices.ingv.it/fdsnws/event/1/query?earthModelId=1</earthModelID>
          <takeoffAngle>
            <value>163</value>
          </takeoffAngle>
          <creationInfo>
            <agencyID>INGV </agencyID>
            <author>BULLETIN-INGV</author>
            <creationTime>2021-01-19T08:54:04</creationTime>
          </creationInfo>
        </arrival>
        <arrival publicID="smi:webservices.ingv.it/fdsnws/event/1/query?arrivalId=1660089521">
          <phase>S</phase>
          <azimuth>25</azimuth>
          <distance>0.0342</distance>
          <timeResidual>-0.22</timeResidual>
          <timeWeight>72</timeWeight>
          <pickID>smi:webservices.ingv.it/fdsnws/event/1/query?pickId=504496471</pickID>
          <earthModelID>smi:webservices.ingv.it/fdsnws/event/1/query?earthModelId=1</earthModelID>
          <takeoffAngle>
            <value>166</value>
          </takeoffAngle>
          <creationInfo>
            <agencyID>INGV </agencyID>
            <author>BULLETIN-INGV</author>
            <creationTime>2021-01-19T08:54:04</creationTime>
          </creationInfo>
        </arrival>
        <arrival publicID="smi:webservices.ingv.it/fdsnws/event/1/query?arrivalId=1660089541">
          <phase>S</phase>
          <azimuth>234</azimuth>
          <distance>0.0755</distance>
          <timeResidual>0.02</timeResidual>
          <timeWeight>75</timeWeight>
          <pickID>smi:webservices.ingv.it/fdsnws/event/1/query?pickId=504496451</pickID>
          <earthModelID>smi:webservices.ingv.it/fdsnws/event/1/query?earthModelId=1</earthModelID>
          <takeoffAngle>
            <value>150</value>
          </takeoffAngle>
          <creationInfo>
            <agencyID>INGV </agencyID>
            <author>BULLETIN-INGV</author>
            <creationTime>2021-01-19T08:54:04</creationTime>
          </creationInfo>
        </arrival>
        <arrival publicID="smi:webservices.ingv.it/fdsnws/event/1/query?arrivalId=1660089651">
          <phase>P</phase>
          <azimuth>58</azimuth>
          <distance>0.2374</distance>
          <timeResidual>-0.18</timeResidual>
          <timeWeight>70</timeWeight>
